{
"type": "FeatureCollection",
"name": "connor",
"crs": { "type": "name", "properties": { "name": "urn:ogc:def:crs:OGC:1.3:CRS84" } },
"features": [
{ "type": "Feature", "properties": { }, "geometry": { "type": "Polygon", "coordinates": [ [ [ -114.138892916756674, 46.00484019329928 ], [ -114.221942862464616, 45.984283276044842 ], [ -114.23879953461325, 45.968660018931466 ], [ -114.248666854895376, 45.946458548296675 ], [ -114.258945313522602, 45.924257077661878 ], [ -114.254422791726626, 45.890954871709688 ], [ -114.234277012817273, 45.849429898855725 ], [ -114.21001985045703, 45.843673962024482 ], [ -114.184529273061528, 45.856008112377147 ], [ -114.1602721107013, 45.872864784525781 ], [ -114.128203319784376, 45.88396551984318 ], [ -114.094901113832179, 45.886843488258805 ], [ -114.046386789111708, 45.855185835686967 ], [ -114.02418531847691, 45.874920476251226 ], [ -114.0282967019278, 45.904522437097619 ], [ -114.042275405660817, 45.935357812979277 ], [ -114.053787279323302, 45.978938477558685 ], [ -114.074344196577741, 45.995795149707327 ], [ -114.138892916756674, 46.00484019329928 ] ] ] } }
]
}
