{
"type": "FeatureCollection",
"name": "horse_creek",
"crs": { "type": "name", "properties": { "name": "urn:ogc:def:crs:OGC:1.3:CRS84" } },
"features": [
{ "type": "Feature", "properties": { "fid": 11029, "TNMID": "{EAE2498B-53CD-44A3-B41F-035C09FA0144}", "HUC10": "1404010105", "low_lying_prop": 0.581858654, "ha_km": 12.13526125 }, "geometry": { "type": "MultiPolygon", "coordinates": [ [ [ [ -110.088152714561488, 42.833277203305897 ], [ -110.017513700087761, 42.645801194221889 ], [ -110.197845078974524, 42.77428177735576 ], [ -110.492687650391872, 42.698395766015281 ], [ -110.617067464782167, 42.72916305867588 ], [ -110.637447306417187, 42.756639964883171 ], [ -110.637096652251046, 42.757551230506735 ], [ -110.634964265796043, 42.772117413817512 ], [ -110.636893221001401, 42.772612281525006 ], [ -110.640404470995918, 42.788725740875051 ], [ -110.640253105371187, 42.789978480456483 ], [ -110.640221693912906, 42.790445513788995 ], [ -110.57983080338164, 42.822896697072004 ], [ -110.580612757547101, 42.823694056445824 ], [ -110.580929883588226, 42.824253209569882 ], [ -110.585432984622912, 42.853121258483426 ], [ -110.58589623358057, 42.853552379316049 ], [ -110.586243637746691, 42.854004420982029 ], [ -110.59098980648929, 42.862103857427854 ], [ -110.591059097114169, 42.862672903260254 ], [ -110.596363970022651, 42.877095826154537 ], [ -110.263637371580728, 42.884363867809917 ], [ -110.088152714561488, 42.833277203305897 ] ] ] ] } }
]
}
