{
"type": "FeatureCollection",
"name": "ogden_rough",
"crs": { "type": "name", "properties": { "name": "urn:ogc:def:crs:OGC:1.3:CRS84" } },
"features": [
{ "type": "Feature", "properties": { }, "geometry": { "type": "Polygon", "coordinates": [ [ [ -111.845828039463328, 41.255621141094288 ], [ -111.844050341892356, 41.265257375750046 ], [ -111.851283522534416, 41.283181818557566 ], [ -111.865588188622311, 41.300810730542771 ], [ -111.879500601375526, 41.313192320162855 ], [ -111.89098423973671, 41.328819675074513 ], [ -111.909186152815323, 41.353020755113448 ], [ -111.933585480050269, 41.379974965869231 ], [ -111.94086555967975, 41.401426045680921 ], [ -111.936899780403905, 41.408397850696467 ], [ -111.9175667306625, 41.400228477691542 ], [ -111.890119154212556, 41.387775930362309 ], [ -111.859741026285676, 41.383334924355879 ], [ -111.849447774884709, 41.383443170760017 ], [ -111.83813019486945, 41.386032105995383 ], [ -111.816517709944463, 41.388725650768528 ], [ -111.787169926611867, 41.381786103854481 ], [ -111.771332739465805, 41.371398201394435 ], [ -111.766569210818787, 41.367871269296614 ], [ -111.757169586075236, 41.357859564513028 ], [ -111.745713451537853, 41.345749410736232 ], [ -111.726422960812329, 41.344610914316455 ], [ -111.711637076481253, 41.356442765875713 ], [ -111.707524369343702, 41.373423863175937 ], [ -111.690412943195881, 41.389069750287447 ], [ -111.675355556263995, 41.396223316197343 ], [ -111.65991158073129, 41.398128059820365 ], [ -111.639846884277034, 41.382952608696208 ], [ -111.632782297742168, 41.369116722529093 ], [ -111.629579440455373, 41.35480566594498 ], [ -111.619165807108345, 41.350793339941227 ], [ -111.606164690182865, 41.360038427571162 ], [ -111.594187808706067, 41.370332455235889 ], [ -111.570765273723566, 41.375558825161171 ], [ -111.550045507410076, 41.378685260864017 ], [ -111.534745384280384, 41.374087991634475 ], [ -111.52241700053861, 41.365009277706385 ], [ -111.507931054241524, 41.346195969287074 ], [ -111.500632331389809, 41.334737759778456 ], [ -111.488863985251427, 41.313828265065752 ], [ -111.481466248346806, 41.294737856733001 ], [ -111.479195367674464, 41.280902491154947 ], [ -111.484382085076064, 41.26498118685808 ], [ -111.49853304935408, 41.257372631525861 ], [ -111.541834836864098, 41.249132989201421 ], [ -111.548255228970234, 41.249522040660658 ], [ -111.58394570839441, 41.256902678661731 ], [ -111.605257825799796, 41.263691847068415 ], [ -111.641094806476943, 41.264570340540502 ], [ -111.683742016284853, 41.256950067716922 ], [ -111.724839001388347, 41.249506783724719 ], [ -111.73896089946679, 41.241871771612409 ], [ -111.794439514906813, 41.245560565738948 ], [ -111.845828039463328, 41.255621141094288 ] ] ] } }
]
}
