{"type":"FeatureCollection","features":[{"type":"Feature","id":"23001900040360-5355","properties":{"id":"23001900040360-5355","huc10":"1019000205","level_path":"23001900040360","seg_distance":5355,"huc12":"101900020501"},"geometry":{"type":"Polygon","coordinates":[[[-104.85405206680298,39.15434117845746],[-104.85424518585205,39.154091588411546],[-104.85405206680298,39.15400839153284],[-104.8539662361145,39.15364232409797],[-104.8538589477539,39.15345928966636],[-104.8539662361145,39.153359452503025],[-104.85424518585205,39.15299338169223],[-104.8545241355896,39.152960102433155],[-104.85581159591675,39.15357576617791],[-104.85581159591675,39.154091588411546],[-104.85561847686768,39.1542912605191],[-104.85561847686768,39.15474052068953],[-104.8555326461792,39.15474052068953],[-104.85551118850708,39.1552064170958],[-104.85405206680298,39.15434117845746]]]}},{"type":"Feature","id":"23001900040360-5355","properties":{"id":"23001900040360-5355"},"geometry":{"type":"MultiPolygon","coordinates":[[[[-104.85405125576457,39.154341365669566],[-104.85405125576457,39.15428442359457],[-104.85414385954512,39.15428442359457],[-104.85414385954512,39.15419183656598],[-104.85423646332568,39.15419183656598],[-104.85423646332568,39.15409924953738],[-104.85414385954512,39.15409924953738],[-104.85414385954512,39.15400666250879],[-104.85405125576457,39.15400666250879],[-104.85405125576457,39.15382148845161],[-104.85395865198403,39.15382148845161],[-104.85395865198403,39.15372890142302],[-104.85386604820349,39.15372890142302],[-104.85386604820349,39.15363631439443],[-104.85395865198403,39.15363631439443],[-104.85395865198403,39.15354372736584],[-104.85386604820349,39.15354372736584],[-104.85386604820349,39.15345114033725],[-104.85395865198403,39.15345114033725],[-104.85395865198403,39.15335855330866],[-104.85405125576457,39.15335855330866],[-104.85405125576457,39.15317337925148],[-104.85414385954512,39.15317337925148],[-104.85414385954512,39.15308079222289],[-104.85423646332568,39.15308079222289],[-104.85423646332568,39.1529882051943],[-104.85451427466731,39.1529882051943],[-104.85451427466731,39.15296514638031],[-104.85581072759497,39.153583745973464],[-104.85581072759497,39.15363631439443],[-104.85571812381443,39.15363631439443],[-104.85571812381443,39.15372890142302],[-104.85581072759497,39.15372890142302],[-104.85581072759497,39.15409924953738],[-104.85571812381443,39.15409924953738],[-104.85571812381443,39.15428442359457],[-104.85562552003388,39.15428442359457],[-104.85562552003388,39.15474735873752],[-104.85553291625332,39.15474735873752],[-104.85553291625332,39.15521029388047],[-104.85551012533215,39.15521029388047],[-104.85405125576457,39.154341365669566]]]]}},{"type":"Feature","id":"23001900040360-5525","properties":{"id":"23001900040360-5525"},"geometry":{"type":"MultiPolygon","coordinates":[[[[-104.8534956330813,39.15591498595763],[-104.8534956330813,39.15585840308061],[-104.85358823686184,39.15585840308061],[-104.85358823686184,39.15567322902342],[-104.8534956330813,39.15567322902342],[-104.8534956330813,39.15539546793765],[-104.85358823686184,39.15539546793765],[-104.85358823686184,39.15530288090906],[-104.85368084064238,39.15530288090906],[-104.85368084064238,39.15511770685188],[-104.85377344442293,39.15511770685188],[-104.85377344442293,39.154932532794696],[-104.85368084064238,39.154932532794696],[-104.85368084064238,39.154839945766106],[-104.85358823686184,39.154839945766106],[-104.85358823686184,39.15474735873752],[-104.85368084064238,39.15474735873752],[-104.85368084064238,39.15456218468034],[-104.85386604820349,39.15456218468034],[-104.85386604820349,39.15446959765175],[-104.85395865198403,39.15446959765175],[-104.85395865198403,39.15437701062316],[-104.85405125576457,39.15437701062316],[-104.85405125576457,39.154341365669566],[-104.85551012533215,39.15521029388047],[-104.85544031247278,39.15521029388047],[-104.85544031247278,39.15539546793765],[-104.85534770869224,39.15539546793765],[-104.85534770869224,39.15530288090906],[-104.85516250113115,39.15530288090906],[-104.85516250113115,39.15521029388047],[-104.85506989735059,39.15521029388047],[-104.85506989735059,39.15530288090906],[-104.85497729357004,39.15530288090906],[-104.85497729357004,39.15539546793765],[-104.8548846897895,39.15539546793765],[-104.8548846897895,39.15548805496624],[-104.85451427466731,39.15548805496624],[-104.85451427466731,39.15558064199483],[-104.85442167088677,39.15558064199483],[-104.85442167088677,39.15567322902342],[-104.85432906710622,39.15567322902342],[-104.85432906710622,39.15576581605202],[-104.85442167088677,39.15576581605202],[-104.85442167088677,39.15585840308061],[-104.85451427466731,39.15585840308061],[-104.85451427466731,39.156093104330246],[-104.8534956330813,39.15591498595763]]]]}}]}