{
"type": "FeatureCollection",
"name": "robinson",
"crs": { "type": "name", "properties": { "name": "urn:ogc:def:crs:EPSG::4269" } },
"features": [
{ "type": "Feature", "properties": { "fid": 1033, "TNMID": "{6D2CFD4C-3996-4A9C-8893-B326C30D059D}", "MetaSourceID": null, "SourceDataDesc": null, "SourceOriginator": null, "SourceFeatureID": null, "LoadDate": "2012-10-24T07:27:35Z", "ReferenceGNIS_IDs": null, "AreaAcres": 124244.49, "AreaSqKm": 502.8, "States": "VA", "HUC10": "0208010309", "Name": "Robinson River", "HUType": "S", "HUMod": null, "Shape_Length": 1.339540277779572, "Shape_Area": 0.051871664916484241, "GNIS_ID": null, "PercAreaInContigStates": 100.0 }, "geometry": { "type": "MultiPolygon", "coordinates": [ [ [ [ -78.347571049245857, 38.574120717208643 ], [ -78.347381265912816, 38.574076605750349 ], [ -78.346584683622382, 38.574085900542002 ], [ -78.345794160706987, 38.574009437000484 ], [ -78.345732264873732, 38.573722935959211 ], [ -78.345401415915887, 38.57290362762717 ], [ -78.345018080499813, 38.572216442211584 ], [ -78.344229478417731, 38.571423737004466 ], [ -78.343372796127369, 38.570515867214226 ], [ -78.342665654461825, 38.570121698464845 ], [ -78.341878407588013, 38.569937010965134 ], [ -78.341148628422502, 38.569502942215763 ], [ -78.340260597173881, 38.56880313909187 ], [ -78.340538962798462, 38.567772721385154 ], [ -78.340689106548211, 38.566962173469733 ], [ -78.340631448214992, 38.565923340137999 ], [ -78.340449709673578, 38.564942104722888 ], [ -78.340403796131966, 38.564821803681411 ], [ -78.339961652382669, 38.564109252640833 ], [ -78.33980293571625, 38.563744439099708 ], [ -78.33957232738328, 38.563449243266859 ], [ -78.339399294050224, 38.563084839100725 ], [ -78.3391626461339, 38.562384429726819 ], [ -78.338988412800859, 38.562110144310566 ], [ -78.338654427384711, 38.561750333894508 ], [ -78.338531533634921, 38.561605203686383 ], [ -78.338098552385588, 38.561194168270333 ], [ -78.337860631552587, 38.561065833895555 ], [ -78.337703148219532, 38.560998263062345 ], [ -78.33744156801157, 38.56083907139589 ], [ -78.336958103429026, 38.56026281618847 ], [ -78.336800995095928, 38.560087129730391 ], [ -78.33634703259662, 38.559834334939126 ], [ -78.335642800306061, 38.559313919314945 ], [ -78.335115144056886, 38.559072231815321 ], [ -78.334610091974298, 38.558919980773851 ], [ -78.33401253676692, 38.558806398482375 ], [ -78.332718620102241, 38.558361334941424 ], [ -78.331744075312088, 38.55806930681689 ], [ -78.331263810729524, 38.558010924525263 ], [ -78.330214839897792, 38.558175935983343 ], [ -78.329920184689911, 38.55818883285832 ], [ -78.329604385732068, 38.558143775566748 ], [ -78.329407865940709, 38.558045774525226 ], [ -78.329204403441054, 38.557785818275647 ], [ -78.328890284691511, 38.557132634943343 ], [ -78.328394532608968, 38.555989155778434 ], [ -78.328290010734122, 38.555658815153947 ], [ -78.328108946151076, 38.55514597869643 ], [ -78.32790345760975, 38.554705906822107 ], [ -78.32763110344348, 38.554393855780916 ], [ -78.327445587818772, 38.554250495364442 ], [ -78.327118397194283, 38.554156207864594 ], [ -78.326608351361756, 38.554112166198024 ], [ -78.325990856571025, 38.554093697448025 ], [ -78.325602873238324, 38.553956095364924 ], [ -78.324525809698287, 38.553180462032799 ], [ -78.323850976366032, 38.552442930783911 ], [ -78.32354585657481, 38.551956135993009 ], [ -78.323291449283545, 38.551332768285647 ], [ -78.323275302408604, 38.55030175057891 ], [ -78.323389771158418, 38.549627362038279 ], [ -78.32347800032494, 38.549336580788747 ], [ -78.323577087824788, 38.548522995373332 ], [ -78.323554626366501, 38.548338958915281 ], [ -78.32361498678307, 38.548229141207116 ], [ -78.323464289908316, 38.547895604749328 ], [ -78.323241591991973, 38.547415472458397 ], [ -78.323120771158813, 38.546792812042725 ], [ -78.323570285741482, 38.546329609960083 ], [ -78.324216580532095, 38.545757213085949 ], [ -78.324712837823029, 38.545355737044929 ], [ -78.325566374280015, 38.545029677670414 ], [ -78.325791896154669, 38.544793546420806 ], [ -78.326584321153462, 38.543185501631626 ], [ -78.326777085736467, 38.542526900590985 ], [ -78.326779895111486, 38.541810642258781 ], [ -78.326641753445017, 38.54099929851003 ], [ -78.326593086778416, 38.540352068302695 ], [ -78.32673592011156, 38.53975344226194 ], [ -78.327071676361015, 38.539117796429593 ], [ -78.327423951360458, 38.538688875596961 ], [ -78.327320349277329, 38.537592781848673 ], [ -78.327456421152078, 38.536521397475326 ], [ -78.327683127401713, 38.535600579768413 ], [ -78.328040704484522, 38.535022866227621 ], [ -78.327378053443852, 38.534744441228042 ], [ -78.326334773237193, 38.534341711020375 ], [ -78.326017158654338, 38.534161565187333 ], [ -78.325102043030768, 38.533556992271599 ], [ -78.324449445115079, 38.532994493314106 ], [ -78.323932875324203, 38.532000219357315 ], [ -78.323512802408231, 38.530692405817717 ], [ -78.323467813866614, 38.529968494360503 ], [ -78.323415725325049, 38.529424957903018 ], [ -78.323076595117243, 38.528204926654894 ], [ -78.322909856575791, 38.527502492280973 ], [ -78.322690010742804, 38.52695020790685 ], [ -78.322459344076492, 38.526700017282224 ], [ -78.322111562827047, 38.526354058949437 ], [ -78.321762577410937, 38.52604416728326 ], [ -78.321442705536413, 38.525580301658977 ], [ -78.320626352412717, 38.524283729785964 ], [ -78.320161021163415, 38.523508690203869 ], [ -78.31988911699716, 38.523070483954541 ], [ -78.319657002414203, 38.522842850621544 ], [ -78.319721645122456, 38.522386082913897 ], [ -78.319680851372482, 38.521234143332379 ], [ -78.319407573247929, 38.520832008957996 ], [ -78.319059835748476, 38.520486040208539 ], [ -78.318785245123877, 38.520101958959117 ], [ -78.318812553457178, 38.519366985001966 ], [ -78.318818357623854, 38.518569560003186 ], [ -78.318650754499117, 38.517889665212579 ], [ -78.318320845124617, 38.517065731880507 ], [ -78.317859253458664, 38.516565336047961 ], [ -78.316757353460389, 38.516123639173657 ], [ -78.315961279503256, 38.515560652716204 ], [ -78.315318495129247, 38.514750083967442 ], [ -78.315052228463003, 38.514140542301732 ], [ -78.315074652421288, 38.513536331885973 ], [ -78.315202993046114, 38.512694893345611 ], [ -78.315269048254322, 38.512202053763076 ], [ -78.315040494088009, 38.511875214180236 ], [ -78.314463420130608, 38.511238444389562 ], [ -78.313724617006756, 38.510430585015797 ], [ -78.313167039924281, 38.509905865224937 ], [ -78.312781271174856, 38.50929519543422 ], [ -78.312704474300006, 38.508761361060067 ], [ -78.312548002425217, 38.508454995435557 ], [ -78.312196213884135, 38.508221724602549 ], [ -78.311244811802283, 38.507843274603147 ], [ -78.310302587845399, 38.50744203502046 ], [ -78.309857430554416, 38.507774437103251 ], [ -78.309311202430251, 38.508231314185878 ], [ -78.308773806597742, 38.508462724602225 ], [ -78.308190388890353, 38.508659397518556 ], [ -78.30761116180787, 38.508720822518455 ], [ -78.307234898266813, 38.50914585793447 ], [ -78.306611599309463, 38.509735526683528 ], [ -78.306120585768554, 38.510006149599803 ], [ -78.305320758686435, 38.51019541522453 ], [ -78.303890429522028, 38.510524101682336 ], [ -78.30336332014781, 38.510475927724087 ], [ -78.301608890983857, 38.510471411057438 ], [ -78.300236974319319, 38.510514631890658 ], [ -78.299409410778935, 38.510799228765222 ], [ -78.297940601406253, 38.510556878765613 ], [ -78.297514351406903, 38.510375211057578 ], [ -78.297260078490638, 38.510103112099671 ], [ -78.297159623282425, 38.509574433975445 ], [ -78.296960222241069, 38.509138630851169 ], [ -78.296497299325154, 38.508651697518587 ], [ -78.295564147243283, 38.507894240228097 ], [ -78.294939922244225, 38.508524414185445 ], [ -78.294295043078591, 38.509051565226287 ], [ -78.293436976413204, 38.509508144392214 ], [ -78.293394526413294, 38.509716538141902 ], [ -78.292586725372871, 38.509432986059039 ], [ -78.291331379541475, 38.50893229960144 ], [ -78.29031421704309, 38.508492467310475 ], [ -78.289528707669319, 38.508284840227475 ], [ -78.288978946211842, 38.508214715227609 ], [ -78.288405873296028, 38.50810470793607 ], [ -78.287339745172687, 38.507702258978384 ], [ -78.286443082674111, 38.507268013145733 ], [ -78.285496337883899, 38.506866695438021 ], [ -78.284981213926358, 38.506498295438575 ], [ -78.284283206635791, 38.506535913146877 ], [ -78.28290438892958, 38.506772808979804 ], [ -78.281813658722911, 38.507010614187777 ], [ -78.281042947265803, 38.507325017312269 ], [ -78.280667608724741, 38.50743464022878 ], [ -78.28012858372557, 38.507647948561782 ], [ -78.279734099351174, 38.507758104811614 ], [ -78.278772628519334, 38.507884153769737 ], [ -78.278508389978072, 38.50799065585295 ], [ -78.277734302479246, 38.508314141269068 ], [ -78.277128728521859, 38.508885143351563 ], [ -78.276805543105695, 38.509299587100884 ], [ -78.276309598314811, 38.509381044392455 ], [ -78.275425730607878, 38.50918058085108 ], [ -78.274794459775478, 38.508900970434865 ], [ -78.274362868109506, 38.508584235018702 ], [ -78.274116108734859, 38.508005575644574 ], [ -78.273936881651821, 38.507632227728493 ], [ -78.273454833735912, 38.507411492312144 ], [ -78.272840371236839, 38.507189955854187 ], [ -78.272283474362723, 38.50692626627125 ], [ -78.271535714988886, 38.506609355855062 ], [ -78.27065012853194, 38.506282779813887 ], [ -78.269856075408143, 38.505940127731094 ], [ -78.269121632700944, 38.505600306898316 ], [ -78.268476279576987, 38.505321053773741 ], [ -78.267867805619574, 38.505207426690561 ], [ -78.267247420203887, 38.505107644399061 ], [ -78.267078651454142, 38.505134878774015 ], [ -78.266719200413036, 38.50510888294076 ], [ -78.266097929580667, 38.504977587107589 ], [ -78.265684539997949, 38.504903545441039 ], [ -78.26509483374889, 38.504883972524397 ], [ -78.265103424373876, 38.505280116273809 ], [ -78.265018225415702, 38.505638338148231 ], [ -78.264770464999401, 38.505816420439658 ], [ -78.264376150416695, 38.50609318189754 ], [ -78.264101193125441, 38.506371116272135 ], [ -78.263755340000955, 38.506610488146748 ], [ -78.263056358752067, 38.506670528771622 ], [ -78.261945338962107, 38.506809620438105 ], [ -78.261335860838074, 38.507042823562756 ], [ -78.26069155771404, 38.507556265228629 ], [ -78.259941888965216, 38.508311373560787 ], [ -78.259269651466241, 38.507654448561766 ], [ -78.258623773342265, 38.506938231896243 ], [ -78.257706556677022, 38.506409743355391 ], [ -78.25733641709428, 38.506023665230998 ], [ -78.25732609313593, 38.505663603773201 ], [ -78.257225294177772, 38.505148408982336 ], [ -78.257050559803019, 38.504693828774691 ], [ -78.256707579595229, 38.504230419400415 ], [ -78.256587427512102, 38.503607656901409 ], [ -78.256586013970434, 38.503004108985692 ], [ -78.256798549386758, 38.502457667319845 ], [ -78.256869530636664, 38.501874627737436 ], [ -78.256760743136851, 38.501571358987917 ], [ -78.256025316054661, 38.501600841279526 ], [ -78.255796210846654, 38.501553164196253 ], [ -78.255040448347813, 38.501560683987918 ], [ -78.25476312438991, 38.501563895446225 ], [ -78.254436788973749, 38.501604504821159 ], [ -78.25333816085049, 38.501707132946024 ], [ -78.252745375434699, 38.501710105862685 ], [ -78.25182270460283, 38.501519547529654 ], [ -78.251371404603503, 38.501478038154687 ], [ -78.250553625438101, 38.501397164196476 ], [ -78.25027104106357, 38.501386997529835 ], [ -78.25010757543879, 38.501332982946622 ], [ -78.249902595230822, 38.501244086071722 ], [ -78.24958917127293, 38.500946495447181 ], [ -78.248761101482557, 38.500397436073058 ], [ -78.248613404607795, 38.500243882948268 ], [ -78.248457053566369, 38.5000770589902 ], [ -78.248010659817055, 38.499702073574156 ], [ -78.247436883776288, 38.49915495169995 ], [ -78.24692664731873, 38.498610567325841 ], [ -78.246588103569309, 38.498016372535062 ], [ -78.246481668152796, 38.497465282952589 ], [ -78.246249599403143, 38.496872637120191 ], [ -78.245930601486975, 38.496318437121033 ], [ -78.24549753482097, 38.495988117329887 ], [ -78.244929798363501, 38.495841705871783 ], [ -78.244547596280768, 38.495834287121795 ], [ -78.244055479614872, 38.495920003788342 ], [ -78.243733291073738, 38.496032539204805 ], [ -78.243384927532588, 38.496240390246157 ], [ -78.243098447324712, 38.496514093370763 ], [ -78.242962854616565, 38.496729557953756 ], [ -78.242656617117063, 38.496954257953405 ], [ -78.242374746284156, 38.4971152183698 ], [ -78.241986852534751, 38.49725659753625 ], [ -78.241745770243483, 38.49745246211927 ], [ -78.241630835868648, 38.497685370452245 ], [ -78.241536831702149, 38.497917700660253 ], [ -78.24146104107723, 38.498248623576387 ], [ -78.241436583785628, 38.498506051700986 ], [ -78.241424055660616, 38.498646036075741 ], [ -78.241413956702331, 38.498912075658666 ], [ -78.241169713994339, 38.499472883991132 ], [ -78.240520846287041, 38.500162014198395 ], [ -78.239717575454961, 38.500819378780704 ], [ -78.239335961913866, 38.501356961071565 ], [ -78.238922212956197, 38.501981012112253 ], [ -78.238452661915233, 38.502647148569565 ], [ -78.238065848374163, 38.503292973568534 ], [ -78.23793577858271, 38.503792056901091 ], [ -78.237726660874728, 38.504158194400532 ], [ -78.23724149525043, 38.504500441275013 ], [ -78.236779572334513, 38.504945643357644 ], [ -78.236264724418618, 38.505329247523719 ], [ -78.236082902543899, 38.50571714856477 ], [ -78.235806580669362, 38.506386937105447 ], [ -78.235175881711996, 38.506152133980777 ], [ -78.234438347338141, 38.505807673564675 ], [ -78.233428303589733, 38.50532209127374 ], [ -78.23242030879959, 38.504777889191246 ], [ -78.231821235883842, 38.504456608983389 ], [ -78.230752343177187, 38.504040198567395 ], [ -78.230211118178033, 38.503654250651323 ], [ -78.230269310886285, 38.503589582943107 ], [ -78.229805265053642, 38.503359156901809 ], [ -78.229386721304309, 38.503393232943381 ], [ -78.229018493179865, 38.503579068359784 ], [ -78.228850918180171, 38.503597206901418 ], [ -78.228268314014372, 38.503563735026489 ], [ -78.227267144224299, 38.503559827734819 ], [ -78.226622758808617, 38.503699220442911 ], [ -78.225895401518073, 38.503813870442741 ], [ -78.225590178601863, 38.503786250651103 ], [ -78.2249521338112, 38.503758797526189 ], [ -78.224429475478701, 38.503615548568064 ], [ -78.223960377562719, 38.503520371484854 ], [ -78.223597022354966, 38.503570923568134 ], [ -78.223114576522391, 38.503822948567745 ], [ -78.222310944231992, 38.504484711066709 ], [ -78.221387168191711, 38.505356978773705 ], [ -78.220264479651803, 38.506360838147145 ], [ -78.219457652569702, 38.507076721479336 ], [ -78.218917498403925, 38.507393380853841 ], [ -78.21794952653039, 38.507983060019626 ], [ -78.21698122340689, 38.508581749602001 ], [ -78.216416096324451, 38.508318016269072 ], [ -78.215962770283511, 38.508307955852445 ], [ -78.215458603617606, 38.508407398560621 ], [ -78.214977648410013, 38.508609801685282 ], [ -78.214457747369181, 38.50912858189281 ], [ -78.213772027578557, 38.509588853767127 ], [ -78.212650742163646, 38.51054755897394 ], [ -78.212101096331139, 38.511103180848124 ], [ -78.211690334873424, 38.51093878605667 ], [ -78.211083075499403, 38.510811314181865 ], [ -78.210192879667431, 38.510835746473504 ], [ -78.209526184876836, 38.510818002723568 ], [ -78.209348215085413, 38.510376948557564 ], [ -78.208868108836157, 38.509845085016707 ], [ -78.208349742170299, 38.509589037100454 ], [ -78.207467864046691, 38.509397006892414 ], [ -78.205849791132493, 38.508819747518316 ], [ -78.205080245300394, 38.508575072518681 ], [ -78.205314280716664, 38.50833443189407 ], [ -78.205919022382432, 38.507727782936684 ], [ -78.206820230714357, 38.506725623563227 ], [ -78.207724282796278, 38.504912587107697 ], [ -78.208070541129075, 38.503871581900967 ], [ -78.207919721337646, 38.503452302734956 ], [ -78.207435068213385, 38.503046677735597 ], [ -78.20697700467241, 38.502662846486203 ], [ -78.206423111964966, 38.501790658987545 ], [ -78.205678039049474, 38.5008201016974 ], [ -78.204126732801853, 38.49938064024127 ], [ -78.202151604679898, 38.497700504827208 ], [ -78.200652271348929, 38.49652533191238 ], [ -78.200167865099672, 38.496272818371096 ], [ -78.199702648433743, 38.496308065246069 ], [ -78.199290863017723, 38.496567070453978 ], [ -78.198911154684936, 38.496798170453644 ], [ -78.198474979685614, 38.496886670453478 ], [ -78.198025990103019, 38.496511561079103 ], [ -78.197411956770623, 38.496397715245905 ], [ -78.196549773438619, 38.49632668087105 ], [ -78.194740958858119, 38.496749953787059 ], [ -78.193307521360339, 38.497054848578216 ], [ -78.192962716152522, 38.497334526702787 ], [ -78.192605423444718, 38.497623551702361 ], [ -78.192456910944998, 38.498271740243013 ], [ -78.192294334903579, 38.499262651699837 ], [ -78.19218225469541, 38.499774713157365 ], [ -78.192105176570522, 38.500961481905506 ], [ -78.191804958862633, 38.501537231904592 ], [ -78.191451600529888, 38.501871190237409 ], [ -78.190980711988914, 38.50205069752883 ], [ -78.190284763031684, 38.501668782946069 ], [ -78.189409595324719, 38.501138599613569 ], [ -78.18902411720029, 38.50071668086423 ], [ -78.18876810261736, 38.500151594406759 ], [ -78.188788846367345, 38.49961500065757 ], [ -78.187865522410448, 38.499523045449394 ], [ -78.187060805745034, 38.49954947461606 ], [ -78.186836276578674, 38.499762793365676 ], [ -78.186637642204005, 38.500047480865248 ], [ -78.18627461095457, 38.500300607948191 ], [ -78.185487822414132, 38.500668873572636 ], [ -78.185100236998039, 38.500292044406535 ], [ -78.184561684915536, 38.49984274440726 ], [ -78.183890759916608, 38.499608756907605 ], [ -78.183305751584157, 38.49954809961605 ], [ -78.182563733876975, 38.499550267324366 ], [ -78.182011194294489, 38.499466199616165 ], [ -78.18106157762935, 38.499248779824825 ], [ -78.17976896096468, 38.499117252741712 ], [ -78.179215531798832, 38.499033193366813 ], [ -78.178360357841825, 38.499569937116007 ], [ -78.177499977634852, 38.500232940239982 ], [ -78.177305423468511, 38.499666157949207 ], [ -78.176729306802713, 38.4986097402425 ], [ -78.176199641178528, 38.49791691836856 ], [ -78.175527295346228, 38.497331570452786 ], [ -78.175027357847, 38.496682980870503 ], [ -78.174592748472719, 38.495951538163297 ], [ -78.174400972431329, 38.495312602747617 ], [ -78.174402541181337, 38.494483737123915 ], [ -78.173932460973731, 38.493865864208203 ], [ -78.173499627641036, 38.493080316292719 ], [ -78.173283301599724, 38.492297900668973 ], [ -78.173304966183025, 38.491738759003169 ], [ -78.173551550557647, 38.490970814212687 ], [ -78.173570467224295, 38.490483818380085 ], [ -78.173188668266562, 38.489962646505887 ], [ -78.173022421391806, 38.489476168381657 ], [ -78.173042323475102, 38.488966623590784 ], [ -78.173236878683156, 38.487947840259039 ], [ -78.172753222433869, 38.487668165259493 ], [ -78.172036294309976, 38.487043462135432 ], [ -78.171800738060369, 38.48675255276089 ], [ -78.171740855768803, 38.486024451720368 ], [ -78.171937109935129, 38.484631753805843 ], [ -78.17192301201851, 38.483420430891044 ], [ -78.171711228685524, 38.482511764225819 ], [ -78.17142271618593, 38.481997065268274 ], [ -78.170796049520277, 38.481423962144163 ], [ -78.17047085785407, 38.48024809547934 ], [ -78.170583203687272, 38.479767575688413 ], [ -78.171258170352871, 38.479078117356153 ], [ -78.172045996393308, 38.478475688190429 ], [ -78.171557812019103, 38.47803396735776 ], [ -78.171630737018972, 38.477059023609286 ], [ -78.171537137019129, 38.476304807985457 ], [ -78.171563701602395, 38.475628416319807 ], [ -78.171733427643801, 38.474443642363326 ], [ -78.170670662020427, 38.473981454864031 ], [ -78.169979607854884, 38.473477655906493 ], [ -78.169206089106069, 38.47270581840769 ], [ -78.168749781815109, 38.472524484032988 ], [ -78.168209582857628, 38.472120193408614 ], [ -78.167333141192273, 38.470833113202275 ], [ -78.167049406817739, 38.470196650703258 ], [ -78.166785879734789, 38.469023606955091 ], [ -78.166598100568422, 38.468316979872839 ], [ -78.165893031819564, 38.468178398623081 ], [ -78.165250306820553, 38.468020109039969 ], [ -78.164855558904492, 38.467837093415255 ], [ -78.1644425839051, 38.467343756957689 ], [ -78.164089721405674, 38.466898347583367 ], [ -78.163089275573896, 38.466010977793076 ], [ -78.162485029741504, 38.465401185085682 ], [ -78.162270769325175, 38.465627694460352 ], [ -78.161774426617569, 38.465663628835273 ], [ -78.161575539117905, 38.466024856959734 ], [ -78.16168055682607, 38.466485980917355 ], [ -78.161975589117276, 38.466829361125178 ], [ -78.161441551618111, 38.467060004874781 ], [ -78.160821889119063, 38.467121787166377 ], [ -78.160201494328362, 38.467179084041277 ], [ -78.159669432870885, 38.467414170499239 ], [ -78.159533480787729, 38.467453877790831 ], [ -78.159138178705007, 38.467536620499061 ], [ -78.158747820372298, 38.467740851748715 ], [ -78.1585363714143, 38.467958269456744 ], [ -78.158155140164865, 38.46853161945586 ], [ -78.157762671415469, 38.468884553830321 ], [ -78.157526569332504, 38.469111643413271 ], [ -78.157171105791406, 38.469368980912861 ], [ -78.15666433287555, 38.469905173620361 ], [ -78.156173199542934, 38.470463465286173 ], [ -78.155554907877274, 38.471119777785134 ], [ -78.155293994335977, 38.471270955909915 ], [ -78.154262727670925, 38.47165911840932 ], [ -78.153433992255543, 38.471924695492248 ], [ -78.152716077673347, 38.472079174658688 ], [ -78.15191302246626, 38.472280986116687 ], [ -78.150166004760592, 38.472463162158078 ], [ -78.149472724553334, 38.472513354866351 ], [ -78.148477450596545, 38.472688784032698 ], [ -78.148219331846974, 38.472970503823944 ], [ -78.148269186013579, 38.473288982990141 ], [ -78.148746581846126, 38.473713075697788 ], [ -78.147853213097562, 38.4736425142396 ], [ -78.146942466223948, 38.473230072573529 ], [ -78.146104078725273, 38.472554418407924 ], [ -78.145587094351072, 38.4723475944499 ], [ -78.144973075602024, 38.472260495491696 ], [ -78.144220939144816, 38.471731155909197 ], [ -78.142775290188752, 38.470797017369023 ], [ -78.141869539148502, 38.470267282994826 ], [ -78.141561143315641, 38.470257544453148 ], [ -78.140972174566571, 38.470313895494769 ], [ -78.13949972456885, 38.470839893410584 ], [ -78.138940794361361, 38.470895427785536 ], [ -78.138415162070544, 38.470909524660499 ], [ -78.137644019363393, 38.47089416736884 ], [ -78.137125378739199, 38.471110775701845 ], [ -78.135819820407903, 38.472100723616961 ], [ -78.13501025790913, 38.472248539241718 ], [ -78.133989080827405, 38.47229390903334 ], [ -78.13293697562068, 38.472344604866578 ], [ -78.131698893330963, 38.472409274658162 ], [ -78.131424127706396, 38.47311032153209 ], [ -78.131062068331914, 38.473660552781212 ], [ -78.130651919374259, 38.473865220489245 ], [ -78.129656733959109, 38.47403598403065 ], [ -78.128802407918784, 38.474284054863574 ], [ -78.128723968335578, 38.474308672571851 ], [ -78.128193803753049, 38.474313838196849 ], [ -78.127258973546191, 38.474509995488233 ], [ -78.126289588130987, 38.474801663196104 ], [ -78.125598920423727, 38.475103897570648 ], [ -78.124819899591614, 38.475255332987103 ], [ -78.124154843342637, 38.475673992361408 ], [ -78.123782202718246, 38.475715471528019 ], [ -78.123393435010485, 38.475383504861895 ], [ -78.122993720427814, 38.475353631945268 ], [ -78.122375188137084, 38.475361128820225 ], [ -78.122057864179226, 38.47557229861161 ], [ -78.121572986055014, 38.47543207882012 ], [ -78.121154933972321, 38.475533321528303 ], [ -78.120495425640001, 38.475749109027959 ], [ -78.120137164182211, 38.47575866006963 ], [ -78.119820338141039, 38.475537377778323 ], [ -78.119539386058136, 38.475238559028753 ], [ -78.119588440224732, 38.474827341321088 ], [ -78.119713936057906, 38.474540211113208 ], [ -78.119674333974615, 38.474307029863553 ], [ -78.119558453766444, 38.473945253822421 ], [ -78.119342302725101, 38.473234794448558 ], [ -78.119014463142321, 38.472500287158027 ], [ -78.118810327725953, 38.471902120492302 ], [ -78.118374153768286, 38.471395723618059 ], [ -78.118061194393761, 38.471093249660214 ], [ -78.117705024602685, 38.470652287160874 ], [ -78.117630914186122, 38.470046150703467 ], [ -78.117462403769707, 38.468969553830163 ], [ -78.117500807936324, 38.468418977789327 ], [ -78.117672298561047, 38.468193687164728 ], [ -78.118244640226806, 38.467709967373764 ], [ -78.118522899601373, 38.467270118416138 ], [ -78.118317000643401, 38.466726052791955 ], [ -78.118092761060382, 38.466632928833803 ], [ -78.117692151686015, 38.466481437167374 ], [ -78.117472917311375, 38.466226015292762 ], [ -78.11738139439484, 38.466133856959573 ], [ -78.117167133978512, 38.465761184043458 ], [ -78.116970302728816, 38.465518677793852 ], [ -78.116760563145817, 38.465105341336141 ], [ -78.116644881895979, 38.464955271544738 ], [ -78.116168918355072, 38.464350822587335 ], [ -78.115577716272639, 38.463618811130118 ], [ -78.115408765231223, 38.463258441339008 ], [ -78.115180399606572, 38.462669921548297 ], [ -78.114876662107065, 38.462002325715957 ], [ -78.114887302732029, 38.461866905924524 ], [ -78.114581585024155, 38.461573239258314 ], [ -78.114458719399352, 38.461301733008725 ], [ -78.114484475649306, 38.460922665300984 ], [ -78.114714915232298, 38.460515628843268 ], [ -78.115132164190015, 38.459977494469115 ], [ -78.115312185023072, 38.459522248636517 ], [ -78.115287926689746, 38.45943280488666 ], [ -78.11538356939792, 38.458934759054102 ], [ -78.115472015231148, 38.458423392388227 ], [ -78.115691279814143, 38.457886019472369 ], [ -78.116069944396884, 38.457420979889775 ], [ -78.116145166271735, 38.45723879655668 ], [ -78.116157772521717, 38.456887106973909 ], [ -78.116108074605165, 38.45640644447468 ], [ -78.115998402730327, 38.456229183016603 ], [ -78.115731073564064, 38.455966026767044 ], [ -78.115218699606544, 38.455740926767362 ], [ -78.114716187107319, 38.455740787184027 ], [ -78.114196437108092, 38.455664526767464 ], [ -78.113920008983541, 38.455514222601039 ], [ -78.11364394648399, 38.455201746559851 ], [ -78.113360624609413, 38.45496603614356 ], [ -78.11321357252632, 38.454839316352093 ], [ -78.112741023568731, 38.454374403852796 ], [ -78.112026378778125, 38.454357372602828 ], [ -78.111221997529412, 38.454131009061541 ], [ -78.110826818363364, 38.45424962156136 ], [ -78.110495917322169, 38.454393552811098 ], [ -78.110197214197626, 38.454541131977578 ], [ -78.110000117322954, 38.454586910102478 ], [ -78.109324598574005, 38.454393144477763 ], [ -78.108943005866251, 38.454178053853127 ], [ -78.108887989199673, 38.453918251770176 ], [ -78.108165068367498, 38.454108625728225 ], [ -78.107579896493405, 38.4540926309366 ], [ -78.106361405870302, 38.453652001770593 ], [ -78.104534346498099, 38.452970741354989 ], [ -78.102391025668112, 38.452072609064714 ], [ -78.09964035692235, 38.450902230941551 ], [ -78.097774898591922, 38.450370530942394 ], [ -78.096526768385559, 38.450259411150853 ], [ -78.096195881927713, 38.450412312192327 ], [ -78.095742423595084, 38.450361242400731 ], [ -78.095116272554378, 38.450148069484385 ], [ -78.094537975680282, 38.449969664276296 ], [ -78.094106984014275, 38.449359429902245 ], [ -78.093877367348, 38.448996126777843 ], [ -78.093540580890192, 38.44849150802861 ], [ -78.093264804848957, 38.448057349695944 ], [ -78.092018798600861, 38.447081250739132 ], [ -78.091023001727422, 38.446778718447945 ], [ -78.090641502769699, 38.446563565323288 ], [ -78.090297179853565, 38.44622130074049 ], [ -78.090188300687032, 38.445679122616298 ], [ -78.09015176631209, 38.444990889284043 ], [ -78.090342780895128, 38.444278628868517 ], [ -78.091058131935711, 38.443475946578076 ], [ -78.090135095478786, 38.442968779912178 ], [ -78.089255124646854, 38.442203709080047 ], [ -78.088570086106245, 38.441447000747871 ], [ -78.087623057982682, 38.440728733040658 ], [ -78.087571330899436, 38.440401263249498 ], [ -78.08758466735776, 38.440067573666681 ], [ -78.087522637149505, 38.439578210125774 ], [ -78.086946094442055, 38.439043860126617 ], [ -78.087254077774958, 38.438585280960638 ], [ -78.087505031941191, 38.438006580961542 ], [ -78.087457450691261, 38.437566388253913 ], [ -78.086763305900718, 38.437039641379727 ], [ -78.086262235068148, 38.436566362213796 ], [ -78.085997421526883, 38.43587062888156 ], [ -78.086184287151582, 38.435262089299158 ], [ -78.086465302776162, 38.434754672633289 ], [ -78.086676165275833, 38.434348207008895 ], [ -78.086693512150816, 38.433915309092924 ], [ -78.086679853817486, 38.433456204926983 ], [ -78.086893070483825, 38.433000122635974 ], [ -78.087373590274751, 38.432370324720296 ], [ -78.087482734024604, 38.432092668470716 ], [ -78.08648244340111, 38.431889312221074 ], [ -78.085640670485759, 38.431789879929568 ], [ -78.084605211112375, 38.431664015346428 ], [ -78.083409944447567, 38.431479286180036 ], [ -78.0824155100741, 38.43112709138893 ], [ -78.081617653825333, 38.430747190347802 ], [ -78.080916602784782, 38.430396266390062 ], [ -78.08103424340959, 38.429888658057507 ], [ -78.081164328826048, 38.42910143722537 ], [ -78.081507522575521, 38.428641944517778 ], [ -78.081889826741588, 38.428041782018681 ], [ -78.082394194449137, 38.427623089310998 ], [ -78.082963787156586, 38.427198172644978 ], [ -78.082631502782135, 38.42657628202096 ], [ -78.08228849236599, 38.426206928896534 ], [ -78.082171894449516, 38.425872155980414 ], [ -78.082346407990883, 38.42557025806417 ], [ -78.082723491323634, 38.42509185285661 ], [ -78.082809116323517, 38.424585085149033 ], [ -78.082898905906688, 38.423970097649999 ], [ -78.083139674656309, 38.42364843515054 ], [ -78.083613990280583, 38.423171970567921 ], [ -78.084255980904572, 38.422573968485494 ], [ -78.084534911112485, 38.422098142444611 ], [ -78.084462367362619, 38.421478421612221 ], [ -78.084548974654126, 38.420944598696394 ], [ -78.084959380903513, 38.420442786197157 ], [ -78.085675403819039, 38.419617594531758 ], [ -78.08495191111183, 38.419010524741054 ], [ -78.084400545487711, 38.418777301824719 ], [ -78.08371414236376, 38.418259339325516 ], [ -78.08317898923957, 38.417813965367884 ], [ -78.082902917365004, 38.417397805993573 ], [ -78.082664115282057, 38.416886066410996 ], [ -78.082646291323726, 38.416521664328229 ], [ -78.081978850699784, 38.416124814328839 ], [ -78.081285305909205, 38.415593512246346 ], [ -78.081261327784262, 38.415391435163315 ], [ -78.081251985075937, 38.414797076830894 ], [ -78.081493729867191, 38.414448363289807 ], [ -78.081778706950104, 38.413837247665754 ], [ -78.082356581949227, 38.413213915375024 ], [ -78.082820041323487, 38.412201694543285 ], [ -78.083312846531044, 38.411269782044712 ], [ -78.084170735071382, 38.410958891420194 ], [ -78.085518132985953, 38.410585542462456 ], [ -78.085820887152181, 38.410334316421199 ], [ -78.085682306944022, 38.409743364338738 ], [ -78.085677843402379, 38.40905428100649 ], [ -78.08563230902746, 38.408564479965605 ], [ -78.085476913194384, 38.408280283091017 ], [ -78.084814706945394, 38.407878804966629 ], [ -78.084474616320904, 38.407437307050657 ], [ -78.084240104862943, 38.406790319551703 ], [ -78.084220297571335, 38.406484528927137 ], [ -78.084328873612833, 38.406202383094239 ], [ -78.083763356947031, 38.405730783095009 ], [ -78.083442076739175, 38.405617622678506 ], [ -78.083122712156353, 38.405486389345356 ], [ -78.083436643405832, 38.404955589346173 ], [ -78.083776730905356, 38.404577257055109 ], [ -78.083883965280165, 38.404326681013856 ], [ -78.083927393405077, 38.404073278930923 ], [ -78.083850705905206, 38.403557270598355 ], [ -78.083901234030122, 38.403096472682421 ], [ -78.084114942363158, 38.402644887266433 ], [ -78.084524081945858, 38.402170136225493 ], [ -78.084891146528605, 38.401921722684222 ], [ -78.085354965277872, 38.401702290392905 ], [ -78.085850678818758, 38.40151354664323 ], [ -78.085803145485499, 38.401073349768865 ], [ -78.085814325693832, 38.400793769561005 ], [ -78.085704931944008, 38.400278623728468 ], [ -78.085610434027501, 38.399407224771494 ], [ -78.085431641319417, 38.398993009147091 ], [ -78.085413838194484, 38.398637614356005 ], [ -78.085495699652654, 38.398203016439993 ], [ -78.085672209027393, 38.397874034148856 ], [ -78.085889988193742, 38.39729170602476 ], [ -78.086172699651627, 38.396734695608927 ], [ -78.086125364235045, 38.396298996651296 ], [ -78.086071493401789, 38.396016626860046 ], [ -78.085823484027173, 38.395703337277212 ], [ -78.08556618506924, 38.395642549777335 ], [ -78.08521179131975, 38.395557291444106 ], [ -78.084467027779283, 38.395491325819194 ], [ -78.083615500697249, 38.395648892485667 ], [ -78.083349849655974, 38.39579553102709 ], [ -78.082849743406769, 38.395295175819513 ], [ -78.082347826740886, 38.394848919570222 ], [ -78.082910649656696, 38.394581846653978 ], [ -78.083545753822364, 38.394159708112966 ], [ -78.083659693405536, 38.393755798738596 ], [ -78.08364815694722, 38.393400238322442 ], [ -78.083780018405321, 38.392378726865729 ], [ -78.083867607988509, 38.391817848741596 ], [ -78.084365449654399, 38.390755165409928 ], [ -78.084768332987096, 38.390429229993742 ], [ -78.084940590278507, 38.390181444577479 ], [ -78.085090389236598, 38.389700010203228 ], [ -78.085072046528296, 38.389340124787111 ], [ -78.085117097569935, 38.389032625829259 ], [ -78.085361745486182, 38.388607251871576 ], [ -78.085748091318919, 38.387871831039377 ], [ -78.085886216318727, 38.387751070622926 ], [ -78.085539355902597, 38.387408851873431 ], [ -78.085551711110895, 38.387102214373897 ], [ -78.085801521527173, 38.386546069583119 ], [ -78.085882082985393, 38.386161057083712 ], [ -78.085963486110245, 38.385758002917669 ], [ -78.0860873819434, 38.385092560210353 ], [ -78.08610673090169, 38.384605552919425 ], [ -78.085887830902038, 38.384399605003125 ], [ -78.085791630902179, 38.384370610211477 ], [ -78.085909349652013, 38.383858486253928 ], [ -78.085827511110494, 38.383473246671201 ], [ -78.08556092569421, 38.382827106047216 ], [ -78.085547305902594, 38.382367994589572 ], [ -78.085466581944388, 38.381933174798576 ], [ -78.085138684028209, 38.381207564383033 ], [ -78.085033507986736, 38.380588700842338 ], [ -78.085081035069948, 38.380209062301276 ], [ -78.085097273611609, 38.379947365426688 ], [ -78.084974825695156, 38.379729866468665 ], [ -78.084778897570459, 38.379108886261292 ], [ -78.084862040278665, 38.378624705012044 ], [ -78.085028741320059, 38.378124807096185 ], [ -78.085380498611187, 38.377556968555382 ], [ -78.08582110381883, 38.377076881056155 ], [ -78.085995318401899, 38.376838048764853 ], [ -78.086019020485196, 38.376247321682399 ], [ -78.086122187151716, 38.375519361266868 ], [ -78.08596027673525, 38.374987578976061 ], [ -78.085644202777416, 38.374644548768231 ], [ -78.085163623611493, 38.374305850852124 ], [ -78.083983284030012, 38.374071169602473 ], [ -78.082958282989921, 38.3736161664782 ], [ -78.081860688199981, 38.372676565437985 ], [ -78.080680387160157, 38.371986882105716 ], [ -78.079014040287746, 38.370629771691142 ], [ -78.07830047466382, 38.370180050858494 ], [ -78.077774256956332, 38.370049733150381 ], [ -78.077153597582253, 38.370002978983791 ], [ -78.076481805916671, 38.36987197690064 ], [ -78.075972883000759, 38.369326773776493 ], [ -78.075511818418136, 38.368505527944421 ], [ -78.074752484044325, 38.367822747737193 ], [ -78.074438186128134, 38.367443599821115 ], [ -78.073281933004978, 38.367960448778604 ], [ -78.072628527797633, 38.368292916486439 ], [ -78.072137553840037, 38.368652652944206 ], [ -78.071670664257454, 38.369345098776478 ], [ -78.071398470507859, 38.369834231067387 ], [ -78.071163153841553, 38.369669226900953 ], [ -78.070587180925827, 38.369220355026641 ], [ -78.070339750717835, 38.368722322735778 ], [ -78.070129668426489, 38.367885466487053 ], [ -78.070017790301677, 38.367654159195752 ], [ -78.069832069468646, 38.366978828988465 ], [ -78.069593729885696, 38.36660668732236 ], [ -78.06912557780305, 38.365911733156793 ], [ -78.068873850720138, 38.365679584198801 ], [ -78.068020612179794, 38.365188412324585 ], [ -78.067621996555431, 38.364856501908434 ], [ -78.067447645513994, 38.364635837325466 ], [ -78.067265238222603, 38.364266730034331 ], [ -78.06687193509822, 38.363421150868987 ], [ -78.0666123236403, 38.362819823786594 ], [ -78.066476259057197, 38.362057599829427 ], [ -78.066308978849122, 38.361521423788588 ], [ -78.066076396557833, 38.361009482122768 ], [ -78.065557099683588, 38.360473509206884 ], [ -78.064811216351416, 38.359456967541803 ], [ -78.064493168435263, 38.359113927959015 ], [ -78.063720071561477, 38.358201693585443 ], [ -78.063415551770277, 38.357979922752463 ], [ -78.063002030937582, 38.357806048794373 ], [ -78.062250202813743, 38.357321189420134 ], [ -78.061801290314463, 38.356769846712666 ], [ -78.061415020523384, 38.356270919630106 ], [ -78.061144006982147, 38.355723932130957 ], [ -78.060857562190904, 38.354780939424074 ], [ -78.060747819482742, 38.354013515466931 ], [ -78.060779113232684, 38.352936088385263 ], [ -78.060874281982535, 38.352564220677493 ], [ -78.061115168440494, 38.351756100887087 ], [ -78.061374061148456, 38.351080845679803 ], [ -78.061605354898063, 38.350513520680693 ], [ -78.061659688231316, 38.350313895680983 ], [ -78.061896140314275, 38.349740130056887 ], [ -78.062146313230585, 38.349301145682603 ], [ -78.062538141354992, 38.348448533183898 ], [ -78.062862689271128, 38.347831921726538 ], [ -78.06362068614493, 38.346235472770672 ], [ -78.064139712185806, 38.345492144646812 ], [ -78.064442565310344, 38.345137362355729 ], [ -78.064664412184982, 38.344879298814419 ], [ -78.064989892392816, 38.344577981106568 ], [ -78.065671967391779, 38.343924976940912 ], [ -78.065869446558111, 38.343708090482949 ], [ -78.066316461140786, 38.343101776942206 ], [ -78.066619910098609, 38.342778507151024 ], [ -78.067231677806035, 38.341942643610651 ], [ -78.067816235096757, 38.341084967570339 ], [ -78.068263219471078, 38.340266929029951 ], [ -78.068566942387292, 38.339849052988939 ], [ -78.069009000719916, 38.339346464448056 ], [ -78.069479112177532, 38.338644936324101 ], [ -78.069917579885157, 38.338070366533373 ], [ -78.070019286134993, 38.337905533200285 ], [ -78.070293324676243, 38.337546988409144 ], [ -78.070877896550371, 38.336860473826903 ], [ -78.071377160091231, 38.336329349869402 ], [ -78.072120025715094, 38.33548551966237 ], [ -78.072602152797685, 38.335031419663039 ], [ -78.072826985088966, 38.33477776653848 ], [ -78.073248165296661, 38.334370309247447 ], [ -78.073624708004445, 38.333964021748045 ], [ -78.074178619461918, 38.333044054041125 ], [ -78.074849421544172, 38.332044435292687 ], [ -78.075760372584455, 38.330790754044642 ], [ -78.075956776750786, 38.330393691545282 ], [ -78.076170186125466, 38.329743924879608 ], [ -78.076615322583109, 38.328556523839779 ], [ -78.076679612166345, 38.327955718632381 ], [ -78.076931649665937, 38.327268897800138 ], [ -78.077056780915768, 38.326927762384003 ], [ -78.077426282998545, 38.326715347800985 ], [ -78.07804197987258, 38.326176633218495 ], [ -78.078185472580685, 38.326096284260245 ], [ -78.078384725705348, 38.325973928010455 ], [ -78.078650690288271, 38.325899367593934 ], [ -78.079505877786971, 38.325804816552363 ], [ -78.079765094453251, 38.32574394467747 ], [ -78.080254800702448, 38.325627464469335 ], [ -78.080397355910577, 38.325731826969161 ], [ -78.080889424659802, 38.325962137385488 ], [ -78.081314243409167, 38.326144661343506 ], [ -78.081931350699847, 38.326335641551566 ], [ -78.082513699657284, 38.326216712385076 ], [ -78.083094328823051, 38.326057284260344 ], [ -78.08390334444681, 38.325792738427424 ], [ -78.084104776738172, 38.325688333219205 ], [ -78.084759205903822, 38.325558486344448 ], [ -78.08497372465348, 38.325214989469941 ], [ -78.085137464236539, 38.324323264471332 ], [ -78.085327606944588, 38.323232639473019 ], [ -78.085499687152662, 38.323038912390018 ], [ -78.086303914234747, 38.32260780509904 ], [ -78.087428436107984, 38.322393484266001 ], [ -78.088377201731532, 38.322463072807579 ], [ -78.089245404855149, 38.322701449890531 ], [ -78.089428922563229, 38.323151576973146 ], [ -78.089638291312895, 38.323398315514453 ], [ -78.089979672562379, 38.323551476972568 ], [ -78.090491170478231, 38.323578526972483 ], [ -78.090982522560807, 38.323173660306452 ], [ -78.091766923601256, 38.32231059468279 ], [ -78.092155527767318, 38.321746268642016 ], [ -78.092270590267162, 38.321157628017943 ], [ -78.092373284017015, 38.320425167602423 ], [ -78.093431254848667, 38.319117919687756 ], [ -78.093576397556774, 38.318690651980091 ], [ -78.093524214223521, 38.318169492605875 ], [ -78.093538288181833, 38.317349279065525 ], [ -78.093985225681138, 38.316787909274694 ], [ -78.094629146513512, 38.315955563442685 ], [ -78.095293013179116, 38.31511367802733 ], [ -78.095485835053807, 38.314577037403126 ], [ -78.09534711942905, 38.313760859279398 ], [ -78.094660517346767, 38.313022219697245 ], [ -78.094211930889117, 38.312065572823713 ], [ -78.094501115263711, 38.31133719261652 ], [ -78.094695707971709, 38.311417640533023 ], [ -78.094882681929732, 38.311579371782784 ], [ -78.095628276720277, 38.31155066553282 ], [ -78.096069014219609, 38.311268740533308 ], [ -78.096782794426815, 38.310610217617636 ], [ -78.097620954842171, 38.309705150952368 ], [ -78.098120318383053, 38.309399144702866 ], [ -78.09854939754905, 38.309410321786174 ], [ -78.098967846506753, 38.309692054077402 ], [ -78.099275362131266, 38.309877618660437 ], [ -78.100038602755092, 38.309848416577154 ], [ -78.101102797545082, 38.31007701657677 ], [ -78.102050404835325, 38.310349235326385 ], [ -78.103291515250021, 38.310410962409605 ], [ -78.104314848581794, 38.31057754990934 ], [ -78.105132933997197, 38.310150453035021 ], [ -78.105222191288703, 38.310098537410113 ], [ -78.105641724621364, 38.309902726993755 ], [ -78.106073236079055, 38.309832726993818 ], [ -78.106265463162117, 38.309778079077262 ], [ -78.106445278786794, 38.309750789493989 ], [ -78.10717502045236, 38.30956476657758 ], [ -78.107549078785098, 38.309500788452681 ], [ -78.107897013159572, 38.30941498011947 ], [ -78.108678211075016, 38.309308666577977 ], [ -78.109426044407201, 38.309032058245066 ], [ -78.1096816287818, 38.308863106161994 ], [ -78.109896891281437, 38.308582612412465 ], [ -78.110021517322934, 38.307556753039023 ], [ -78.110118162114418, 38.307355984289359 ], [ -78.110481039197225, 38.307085083248126 ], [ -78.110879265238282, 38.306934866581685 ], [ -78.11131295065428, 38.306882807206762 ], [ -78.111847920445086, 38.306746975956969 ], [ -78.112575776693973, 38.3066015103322 ], [ -78.113231614192955, 38.306367862415868 ], [ -78.113358581901082, 38.306278900957693 ], [ -78.113826010025377, 38.306176386374545 ], [ -78.114446370441044, 38.305957190541505 ], [ -78.114824712107122, 38.305730908250212 ], [ -78.115184549606568, 38.305523138458852 ], [ -78.11572162773075, 38.305382728042446 ], [ -78.1163497266881, 38.305131781167802 ], [ -78.117476521478011, 38.304795490543313 ], [ -78.11794711106063, 38.304737921793446 ], [ -78.118434574601508, 38.304711432210127 ], [ -78.11888904855914, 38.304748886376728 ], [ -78.119519451683175, 38.304943819709763 ], [ -78.11977386314112, 38.305144257209463 ], [ -78.119993431890805, 38.305719505125239 ], [ -78.120224886057088, 38.306105244707965 ], [ -78.120602792306499, 38.30624833429107 ], [ -78.121273743347103, 38.306338572832601 ], [ -78.121643682929914, 38.306225111374431 ], [ -78.122072299595914, 38.306155128041212 ], [ -78.122992573552779, 38.306139610332934 ], [ -78.123547591260262, 38.306304999915994 ], [ -78.124228278759233, 38.306642712415453 ], [ -78.124866722508216, 38.306995065539923 ], [ -78.125224998549299, 38.307080104081422 ], [ -78.125583541257129, 38.307462440539211 ], [ -78.12584753709001, 38.307964417621747 ], [ -78.12614965271456, 38.308388798871079 ], [ -78.126682239172055, 38.308455669704301 ], [ -78.127324315212718, 38.308280869704561 ], [ -78.128144076669798, 38.307925644705165 ], [ -78.12867417354397, 38.307406974914272 ], [ -78.129261715209736, 38.306724599915356 ], [ -78.12984999437549, 38.305839495750035 ], [ -78.130560940207715, 38.305243910334298 ], [ -78.131398509998064, 38.304892692626538 ], [ -78.132447815204785, 38.304833108251614 ], [ -78.132982291245639, 38.304832329084945 ], [ -78.133134572495408, 38.304796724918333 ], [ -78.134217299577017, 38.304438929085563 ], [ -78.13509124957568, 38.304140766585988 ], [ -78.135712084991383, 38.304034059294509 ], [ -78.136723364156467, 38.304182666585973 ], [ -78.137822499571428, 38.304450537418859 ], [ -78.139388633944009, 38.304606783251984 ], [ -78.140708415191966, 38.304738081168409 ], [ -78.142131475606391, 38.304600822835312 ], [ -78.143491357895982, 38.304514793668773 ], [ -78.144444031852856, 38.304588328043678 ], [ -78.145139942268429, 38.304921006168115 ], [ -78.145593151642686, 38.305152087417753 ], [ -78.146110173516888, 38.306111195749622 ], [ -78.146634725599426, 38.306876404081777 ], [ -78.147410851639904, 38.307522235330737 ], [ -78.149397253720167, 38.308739147828874 ], [ -78.150162969343967, 38.308078909288213 ], [ -78.150834422467938, 38.30746174158088 ], [ -78.151688996424923, 38.306902708248401 ], [ -78.152208883924118, 38.306325647832637 ], [ -78.15227919642399, 38.305594011375433 ], [ -78.152629716215131, 38.305309802000863 ], [ -78.153277738089116, 38.305274342625921 ], [ -78.154226512045966, 38.305447004083987 ], [ -78.155001703711434, 38.305345048875836 ], [ -78.156094277668103, 38.304977775959685 ], [ -78.1582213401648, 38.304181704085977 ], [ -78.15956954328766, 38.303609307211843 ], [ -78.160357156828127, 38.303164632212543 ], [ -78.160834157869033, 38.302786891588141 ], [ -78.161600512034511, 38.302104040547533 ], [ -78.162200097450295, 38.301727491589759 ], [ -78.162769266199405, 38.301378789506941 ], [ -78.163576150573135, 38.301226371798862 ], [ -78.163712822447906, 38.300893846799397 ], [ -78.163951234947547, 38.300288298883686 ], [ -78.164038059947416, 38.29965981763462 ], [ -78.164051206822421, 38.299317113468476 ], [ -78.164959007862649, 38.299756565551149 ], [ -78.166290750568919, 38.300369241591852 ], [ -78.166689252651622, 38.300426041591777 ], [ -78.166939429734555, 38.300333691591902 ], [ -78.167353049525616, 38.300007191592442 ], [ -78.167725997441664, 38.299916024925892 ], [ -78.168503953690504, 38.299719309301224 ], [ -78.169133468272832, 38.299391466593363 ], [ -78.169635419313749, 38.299161668677073 ], [ -78.169741623480206, 38.298802932219303 ], [ -78.169665592230331, 38.29838606451159 ], [ -78.170200169312864, 38.298105830137047 ], [ -78.170899449520107, 38.297965284303928 ], [ -78.172525750559259, 38.298155495761989 ], [ -78.173977517223648, 38.298066624928765 ], [ -78.175345832846517, 38.298128646803661 ], [ -78.176771201594306, 38.297999916595529 ], [ -78.177560426593118, 38.297955991595586 ], [ -78.178028203675694, 38.298069432220416 ], [ -78.179007878674156, 38.298529346803036 ], [ -78.179675542214795, 38.298916639510765 ], [ -78.180443847421941, 38.299391287426715 ], [ -78.18144447971207, 38.299994760342429 ], [ -78.18174500991995, 38.300355971800229 ], [ -78.181931787002952, 38.300959016590923 ], [ -78.182324212002356, 38.301669088464848 ], [ -78.184071863041311, 38.302621617630052 ], [ -78.184817779706805, 38.303015762421069 ], [ -78.185124609914681, 38.303556975961897 ], [ -78.185830572413579, 38.30429905200242 ], [ -78.18661417449573, 38.305084056167857 ], [ -78.186491027620889, 38.305555881167152 ], [ -78.186173906788042, 38.306289739499334 ], [ -78.186529694287515, 38.307271066581166 ], [ -78.187228305744725, 38.307517830122435 ], [ -78.188183531784944, 38.307933285330137 ], [ -78.188594790117634, 38.308169842621453 ], [ -78.189043655741955, 38.308779254078786 ], [ -78.189494604699576, 38.309330047827984 ], [ -78.190198964073488, 38.309450510327792 ], [ -78.191016404697223, 38.309342659286244 ], [ -78.191541060946406, 38.30933737699462 ], [ -78.192139842195445, 38.309474217619425 ], [ -78.192706218236253, 38.30975608324394 ], [ -78.192900385944256, 38.310178724909974 ], [ -78.193254632818707, 38.310515919701118 ], [ -78.193825046359507, 38.310694064492509 ], [ -78.194526376566785, 38.310895664492193 ], [ -78.195073431774233, 38.310993360325369 ], [ -78.195649842189994, 38.311027187408683 ], [ -78.196309883855633, 38.310919088450476 ], [ -78.197258701562532, 38.310816620742344 ], [ -78.197898751561524, 38.310542391576064 ], [ -78.198096086977898, 38.310199163451614 ], [ -78.198479643227301, 38.309792290535597 ], [ -78.198852042185024, 38.309655997827463 ], [ -78.199378645309253, 38.309605579077527 ], [ -78.199997084891606, 38.309786889493921 ], [ -78.200780250515379, 38.309679906160738 ], [ -78.201379504681142, 38.309798668660562 ], [ -78.201974213013557, 38.310021156160246 ], [ -78.202539202595972, 38.310343551993071 ], [ -78.203276618219832, 38.310958532200402 ], [ -78.20410956613523, 38.311827651990768 ], [ -78.205020081758789, 38.312717165531012 ], [ -78.205493141133047, 38.313393417613327 ], [ -78.205878690090799, 38.313608092612981 ], [ -78.206426749464981, 38.313683183237856 ], [ -78.207110349463903, 38.313655463446253 ], [ -78.207477499463323, 38.313663428029543 ], [ -78.208417909878506, 38.313110645738732 ], [ -78.209368201543725, 38.312616142614502 ], [ -78.209587522376694, 38.312371393656576 ], [ -78.21002956091769, 38.311805223865804 ], [ -78.21057420258353, 38.311276782199911 ], [ -78.211296852582393, 38.310928142617172 ], [ -78.212297747372531, 38.310824123867292 ], [ -78.213410724454093, 38.31056386970107 ], [ -78.213445832787386, 38.310315157201444 ], [ -78.213413523412441, 38.30979802074387 ], [ -78.213273860912636, 38.309337885327921 ], [ -78.212977232788091, 38.308855025953676 ], [ -78.213198129662771, 38.308569687412444 ], [ -78.214388076535954, 38.308329835329516 ], [ -78.215234812992946, 38.308162454079763 ], [ -78.216643648407455, 38.308380536371089 ], [ -78.217846442155576, 38.308496154079251 ], [ -78.218922114028885, 38.307817949913613 ], [ -78.219625244236113, 38.307276103039499 ], [ -78.220329960901722, 38.306693666582078 ], [ -78.220715420276122, 38.306228112416079 ], [ -78.221349379650121, 38.305435903042337 ], [ -78.22200470777409, 38.305449412417317 ], [ -78.222756756731258, 38.30569449366692 ], [ -78.22366405464652, 38.306669536373761 ], [ -78.224424809853701, 38.308054012413265 ], [ -78.22521737651914, 38.309288956161367 ], [ -78.225174961935863, 38.30972255928566 ], [ -78.225142190060922, 38.30989012803542 ], [ -78.225623954643481, 38.310331820743045 ], [ -78.226204758809274, 38.310923937408802 ], [ -78.226873684849863, 38.311734344699232 ], [ -78.226581445267016, 38.312400055114836 ], [ -78.226274909850815, 38.312872463447434 ], [ -78.22594820360132, 38.313192271780281 ], [ -78.22583054005986, 38.313524342613107 ], [ -78.226403220267287, 38.314319384278519 ], [ -78.226746446308425, 38.314972094694213 ], [ -78.227020126516322, 38.315369963443572 ], [ -78.22727023068262, 38.315687398859779 ], [ -78.227364222349138, 38.315977603025999 ], [ -78.227405570265717, 38.316269257192175 ], [ -78.227718830681908, 38.316314680108803 ], [ -78.228248460889404, 38.316182968650651 ], [ -78.228861314013443, 38.315949860317687 ], [ -78.229693621303852, 38.315476463443417 ], [ -78.230276133802931, 38.315320763443651 ], [ -78.230424572344361, 38.31557342698494 ], [ -78.230806231718759, 38.315891731151112 ], [ -78.231554111925959, 38.316244975942197 ], [ -78.232172185883314, 38.31654774573343 ], [ -78.232333014008077, 38.317151417607477 ], [ -78.232732702549129, 38.318027774897814 ], [ -78.233394716089776, 38.319266262395843 ], [ -78.233974872338877, 38.319880878019887 ], [ -78.234067933797064, 38.320193625936099 ], [ -78.234067732755364, 38.320896334268355 ], [ -78.233966361922228, 38.321493728017401 ], [ -78.234045292130418, 38.322171730099683 ], [ -78.234480109838103, 38.322993058223403 ], [ -78.234905129629055, 38.324224564471479 ], [ -78.235246278586885, 38.325012441553611 ], [ -78.235537617128102, 38.325130519678453 ], [ -78.235898765044226, 38.325399822803035 ], [ -78.235952956710776, 38.325902830093924 ], [ -78.236075056710604, 38.326606664467818 ], [ -78.236634703584741, 38.327244354050151 ], [ -78.237850975457832, 38.32863416238132 ], [ -78.23861133483166, 38.328766295714445 ], [ -78.23940271920543, 38.328744411339471 ], [ -78.240964161911336, 38.328611128006344 ], [ -78.242055881701333, 38.328499832173179 ], [ -78.242591681700503, 38.328376894673397 ], [ -78.243561145240619, 38.328886087380909 ], [ -78.24439136711436, 38.329137868630539 ], [ -78.245407841071085, 38.329690787379661 ], [ -78.246459009819489, 38.33064814258654 ], [ -78.247492259817875, 38.331407785293663 ], [ -78.247448996276262, 38.331895469667927 ], [ -78.247259300443261, 38.332337664458919 ], [ -78.247220780651617, 38.332703595708324 ], [ -78.247493070234555, 38.333358207165645 ], [ -78.248073425441987, 38.333679950915155 ], [ -78.248662630649392, 38.333771718623325 ], [ -78.249622498356246, 38.333875720706544 ], [ -78.250391891063373, 38.334439955080654 ], [ -78.250683416062941, 38.335220149871077 ], [ -78.251642510853117, 38.335342175912558 ], [ -78.253120275434128, 38.335476817579035 ], [ -78.25381190043305, 38.335799946745226 ], [ -78.254213072307437, 38.336297808202744 ], [ -78.254528079598629, 38.337122384243173 ], [ -78.255300166055747, 38.337605429034056 ], [ -78.256071934804538, 38.337849741533716 ], [ -78.256985570219797, 38.338463974866045 ], [ -78.257288461885992, 38.33893753215699 ], [ -78.257941626468323, 38.339964404030411 ], [ -78.2586187389673, 38.340368987363092 ], [ -78.25894604521676, 38.340864382153995 ], [ -78.259135976466496, 38.341723956111025 ], [ -78.259413466049352, 38.342216230068573 ], [ -78.25995417750687, 38.342304784235125 ], [ -78.260400469172851, 38.342260830068483 ], [ -78.260947255630299, 38.342178040485294 ], [ -78.262689432710943, 38.343174558192118 ], [ -78.262794876460816, 38.343640085274728 ], [ -78.263153024376891, 38.34398145506583 ], [ -78.263891058750744, 38.344073504024038 ], [ -78.26472548791611, 38.344230423815475 ], [ -78.267605856661646, 38.345812243604655 ], [ -78.267768332703099, 38.346420319645404 ], [ -78.267152695204004, 38.347027579019425 ], [ -78.268037054577633, 38.34716506651921 ], [ -78.268922038951303, 38.347284510269048 ], [ -78.270092858741123, 38.347702271726746 ], [ -78.270964110823115, 38.348191448809303 ], [ -78.271823737905095, 38.34900977068304 ], [ -78.272276211862732, 38.349447575890679 ], [ -78.273213400402938, 38.349506969640572 ], [ -78.273797002485367, 38.349756420681899 ], [ -78.274780942067196, 38.349544229015521 ], [ -78.275584419149254, 38.349210950891063 ], [ -78.276127899356766, 38.349204758182736 ], [ -78.27656957123105, 38.349291498807588 ], [ -78.276905948313868, 38.349552355057199 ], [ -78.277041437897026, 38.349908919639972 ], [ -78.277359447271522, 38.350634246722166 ], [ -78.278553288936337, 38.351753971720427 ], [ -78.280093422267271, 38.352354980052837 ], [ -78.281271720182133, 38.351862517553627 ], [ -78.281858461847889, 38.351341580054395 ], [ -78.282438668096972, 38.350964963388321 ], [ -78.282600616013383, 38.350672138388802 ], [ -78.282776858721434, 38.349991531098169 ], [ -78.282917246221245, 38.349284901932606 ], [ -78.284405859760568, 38.347833271726529 ], [ -78.285410954550684, 38.347228510269133 ], [ -78.285991312883141, 38.346856377978042 ], [ -78.286751174340282, 38.3467224425616 ], [ -78.28774306808873, 38.346446856103682 ], [ -78.288387028504417, 38.346406254020394 ], [ -78.289517694127653, 38.346460086311993 ], [ -78.29072496912579, 38.346484727978634 ], [ -78.291442270166328, 38.346500607145288 ], [ -78.292078674332004, 38.346640375895049 ], [ -78.292600902456172, 38.346828393603062 ], [ -78.293123338913688, 38.34698937797782 ], [ -78.293461347246534, 38.3470249175611 ], [ -78.294674419119644, 38.346905212352965 ], [ -78.29516531599387, 38.346918427977926 ], [ -78.295688828493041, 38.347047838394417 ], [ -78.296621762866607, 38.347336891518978 ], [ -78.297446542031992, 38.347507362352019 ], [ -78.298050289947753, 38.347521893601993 ], [ -78.299194500362603, 38.347350029018969 ], [ -78.300107325361182, 38.347585565476891 ], [ -78.300895326401644, 38.347910200893068 ], [ -78.301313389942663, 38.348173185267683 ], [ -78.301488286817403, 38.348470051933873 ], [ -78.301789101400288, 38.349393989432428 ], [ -78.301708345150416, 38.350315169639316 ], [ -78.301767064941941, 38.351241425887906 ], [ -78.302434859732614, 38.351303677971146 ], [ -78.30319673785641, 38.351331738387785 ], [ -78.303992825355181, 38.351439909220915 ], [ -78.304694427437425, 38.351573263387365 ], [ -78.3053608576447, 38.351676074845557 ], [ -78.305607971186021, 38.351551985262404 ], [ -78.306178715976785, 38.351198041512987 ], [ -78.306915367017325, 38.350911481096773 ], [ -78.307748067016007, 38.350532115472333 ], [ -78.308236946181921, 38.350410199847545 ], [ -78.308627857639635, 38.350390146722532 ], [ -78.309639333679741, 38.350203912347865 ], [ -78.310309456595348, 38.350207492556194 ], [ -78.311129657635774, 38.350166288389573 ], [ -78.311892005551272, 38.350185270681209 ], [ -78.312929297216328, 38.350079357139691 ], [ -78.313662635756828, 38.350355900889269 ], [ -78.314462859713899, 38.350860272763498 ], [ -78.31482504304671, 38.35117433942969 ], [ -78.315686186795347, 38.351501304012515 ], [ -78.316315770127744, 38.351591583179015 ], [ -78.317170536793071, 38.351625932137324 ], [ -78.317914962833584, 38.351631869637288 ], [ -78.318081947208327, 38.352145145678151 ], [ -78.318172794083182, 38.352705623802308 ], [ -78.318427080541085, 38.353365070676261 ], [ -78.318585752415856, 38.353621831092539 ], [ -78.319028435748521, 38.353717390467409 ], [ -78.320283078454906, 38.354028664425243 ], [ -78.320608601371077, 38.354267177966562 ], [ -78.321295488869964, 38.354824263382341 ], [ -78.321604651369512, 38.355013686298719 ], [ -78.322803747200965, 38.355051740465342 ], [ -78.323607745116419, 38.354952347757148 ], [ -78.324174146157191, 38.355247075881664 ], [ -78.324772836781278, 38.355653494631042 ], [ -78.325224409697228, 38.356032555047136 ], [ -78.32534200344702, 38.356371549838286 ], [ -78.325267411780487, 38.356878161295811 ], [ -78.3250502534475, 38.357226662336927 ], [ -78.324509025323323, 38.358021290460727 ], [ -78.324184053448846, 38.35876023004289 ], [ -78.324047344074074, 38.359448781083472 ], [ -78.324139485740545, 38.359977684207649 ], [ -78.324250135740385, 38.360231292540618 ], [ -78.325142588864026, 38.360778014414791 ], [ -78.325542927405081, 38.361036909206007 ], [ -78.325684445113154, 38.361226581080757 ], [ -78.325850645112894, 38.362271385245776 ], [ -78.325897358654515, 38.362522303995377 ], [ -78.326347291987133, 38.362946449828087 ], [ -78.327207662819148, 38.363845409201645 ], [ -78.327766806568263, 38.364311491492629 ], [ -78.328345599275735, 38.364777009200225 ], [ -78.328852778441615, 38.365154476907946 ], [ -78.329001118024678, 38.365172781074591 ], [ -78.32922189927433, 38.365238574824502 ], [ -78.330094940939659, 38.365285818574421 ], [ -78.330463513855761, 38.365396956074278 ], [ -78.330792344063582, 38.365549759199041 ], [ -78.331969211770058, 38.366209953989653 ], [ -78.33275664406051, 38.366561408155803 ], [ -78.333412393017852, 38.36693012065524 ], [ -78.333682746142415, 38.367183677946514 ], [ -78.334001268016948, 38.367629551904145 ], [ -78.334442287807917, 38.36830166127811 ], [ -78.334685730515844, 38.368763184194052 ], [ -78.335126461765185, 38.369444308151287 ], [ -78.335377999264779, 38.369684884192623 ], [ -78.335707307597602, 38.369824148775706 ], [ -78.336277239888375, 38.370028623775397 ], [ -78.336996671137285, 38.370206316483461 ], [ -78.337607113844683, 38.370319544608265 ], [ -78.337408373220001, 38.370667542524416 ], [ -78.337254866970227, 38.371280010231771 ], [ -78.337029198220591, 38.371863002939222 ], [ -78.337018146137268, 38.372151599813776 ], [ -78.33717023988703, 38.373079671687321 ], [ -78.337301920095115, 38.373571400853223 ], [ -78.337222084678615, 38.374226810227242 ], [ -78.337019860720602, 38.375160477934116 ], [ -78.33699982842893, 38.375697070641593 ], [ -78.337203246136937, 38.376263328974062 ], [ -78.337459961761567, 38.376868607098118 ], [ -78.337833706552658, 38.37767774980523 ], [ -78.338153076343815, 38.378218178971053 ], [ -78.337934555510799, 38.378377558137458 ], [ -78.337882472177569, 38.378644800845393 ], [ -78.337869650302594, 38.378992003969813 ], [ -78.338506006551597, 38.37957744771893 ], [ -78.338975508634235, 38.380073052926491 ], [ -78.339272059675409, 38.380645660217283 ], [ -78.339683309674797, 38.381588859174144 ], [ -78.339792673216266, 38.382076715423352 ], [ -78.339781090924646, 38.382392351881208 ], [ -78.340122381549122, 38.382918637297053 ], [ -78.340431941965278, 38.383144034171721 ], [ -78.340727898214823, 38.383167119588336 ], [ -78.341575805505158, 38.383187964379999 ], [ -78.342528034670352, 38.383237358129918 ], [ -78.343218601335934, 38.383487901879505 ], [ -78.343427876335625, 38.384148572711808 ], [ -78.34350687841885, 38.384885033127375 ], [ -78.343705985710187, 38.385518967501355 ], [ -78.34387186383492, 38.386207903958621 ], [ -78.343891533626561, 38.386491117499872 ], [ -78.343761495085118, 38.387193009165458 ], [ -78.343651850293611, 38.387871795622686 ], [ -78.343631176335293, 38.388439936246812 ], [ -78.343510371127195, 38.388853283121193 ], [ -78.343265481544222, 38.389166574787396 ], [ -78.342983536752968, 38.389327773745435 ], [ -78.343219119044306, 38.389852562286308 ], [ -78.343434888835645, 38.390323864368895 ], [ -78.343622098210346, 38.390994171659543 ], [ -78.343626337793637, 38.391462504992148 ], [ -78.343504148210513, 38.391911926866442 ], [ -78.343313906544154, 38.392475902907222 ], [ -78.343302522169154, 38.392791532073431 ], [ -78.343161713836025, 38.393151398739519 ], [ -78.342726163836744, 38.393461124780686 ], [ -78.342667978420138, 38.393890700821714 ], [ -78.342632547170183, 38.394274583112747 ], [ -78.342086105504393, 38.395015388319962 ], [ -78.341426428422096, 38.395651317485658 ], [ -78.34096348571444, 38.396123974776572 ], [ -78.340817802381366, 38.396619109150777 ], [ -78.340680955506571, 38.396902285192027 ], [ -78.340350973215436, 38.397213493524873 ], [ -78.34033591384042, 38.397628325815901 ], [ -78.340336835715448, 38.397970631023725 ], [ -78.340676431548218, 38.398469934147954 ], [ -78.340811414881387, 38.398821926855703 ], [ -78.340711686756492, 38.399239174771708 ], [ -78.340733358631496, 38.399810610187501 ], [ -78.340694502381552, 38.400275669561779 ], [ -78.340489052381884, 38.400673411227842 ], [ -78.340487338840205, 38.401304071643551 ], [ -78.340482444048519, 38.402024909142426 ], [ -78.340457312798605, 38.402710290391326 ], [ -78.340564102381734, 38.403545052890024 ], [ -78.340456000298559, 38.404192263305731 ], [ -78.340318218007098, 38.404470961221932 ], [ -78.340045141965902, 38.40496972892953 ], [ -78.340053773215857, 38.405316317470636 ], [ -78.340097183632452, 38.406441170593894 ], [ -78.339857213841185, 38.407146192467792 ], [ -78.339633660716515, 38.407792191425131 ], [ -78.339449447175127, 38.408189325799526 ], [ -78.339033609675766, 38.408552528923963 ], [ -78.338849785717741, 38.408927128923381 ], [ -78.338700794051306, 38.409525954964124 ], [ -78.338553695093196, 38.410057160171618 ], [ -78.338344484676838, 38.41057212058746 ], [ -78.338223147177018, 38.41096746121184 ], [ -78.338264241968659, 38.411587891419231 ], [ -78.338402388843406, 38.411872229960466 ], [ -78.339060383634092, 38.412439028917902 ], [ -78.339623370091545, 38.412986013292084 ], [ -78.339826146132907, 38.413259498708328 ], [ -78.339813970091257, 38.413593167457805 ], [ -78.339794897174613, 38.414107209123642 ], [ -78.339544631549984, 38.414573793497937 ], [ -78.339509755508402, 38.414935137247369 ], [ -78.339496197175094, 38.41530488203847 ], [ -78.339826859674531, 38.416128753912176 ], [ -78.339898983632793, 38.416482539328285 ], [ -78.340174386757326, 38.41707376016069 ], [ -78.340208232590612, 38.417590796618242 ], [ -78.340198946132318, 38.418406349741986 ], [ -78.340026204465914, 38.419177019532469 ], [ -78.339617956549887, 38.419927384114601 ], [ -78.339277948217102, 38.420590216405287 ], [ -78.339031935717458, 38.421223340362587 ], [ -78.338813052384467, 38.421625967445323 ], [ -78.338653701343048, 38.421918792444842 ], [ -78.33860807009313, 38.422163327861142 ], [ -78.338434184676714, 38.422334949735898 ], [ -78.338353062801843, 38.422535454943898 ], [ -78.338431885718364, 38.422902565360005 ], [ -78.338552009676562, 38.423187415359564 ], [ -78.338560544051518, 38.423461938275807 ], [ -78.338508706551579, 38.423855296608508 ], [ -78.3383480617602, 38.424170677858058 ], [ -78.337779080511041, 38.424524733065823 ], [ -78.336894761762437, 38.425351723689516 ], [ -78.336189751346865, 38.426187111188256 ], [ -78.33655066801299, 38.426393032021281 ], [ -78.336985849262305, 38.426668902854146 ], [ -78.337254573220207, 38.426936005978746 ], [ -78.337392784678343, 38.427197822644985 ], [ -78.337359281553404, 38.427608673686052 ], [ -78.338165734677148, 38.427887467435596 ], [ -78.338751716967863, 38.428095969518608 ], [ -78.339224393008806, 38.428222121601721 ], [ -78.339935041966044, 38.428499129934664 ], [ -78.340540501340115, 38.428761120559216 ], [ -78.340975648214453, 38.429054995558772 ], [ -78.341356378422176, 38.429084665350388 ], [ -78.341861833629707, 38.429191851808582 ], [ -78.342178281545898, 38.429817927849285 ], [ -78.342491325295441, 38.43024590909863 ], [ -78.342962583628037, 38.430705407014557 ], [ -78.343600901335378, 38.431236702847059 ], [ -78.34401723258469, 38.431463537221703 ], [ -78.344519178417272, 38.431660897638096 ], [ -78.344873508625028, 38.43183544972112 ], [ -78.345306927374395, 38.432160889303987 ], [ -78.345278715916095, 38.432359885136975 ], [ -78.344775049250188, 38.432784176803011 ], [ -78.344352646125856, 38.433309744510495 ], [ -78.344180783626143, 38.433936254926209 ], [ -78.344116150292905, 38.434253405967411 ], [ -78.343801748210069, 38.434730840341672 ], [ -78.343347272169069, 38.434969041382942 ], [ -78.342906604461461, 38.435409543465596 ], [ -78.342698027378447, 38.435888455964857 ], [ -78.342680834670148, 38.436357398672442 ], [ -78.342510118003702, 38.436970362213174 ], [ -78.34238466279561, 38.437505457004022 ], [ -78.342451828420508, 38.437971992419932 ], [ -78.34243418883716, 38.438454460127502 ], [ -78.342703449253406, 38.439212508042999 ], [ -78.34281513154491, 38.439650742417314 ], [ -78.343092307586176, 38.440192355958175 ], [ -78.343247015919246, 38.440593325749205 ], [ -78.343337076335786, 38.441032178873513 ], [ -78.343342074252405, 38.441559044497694 ], [ -78.343386940919004, 38.441697397622477 ], [ -78.344301103417592, 38.442238823663331 ], [ -78.344874650291729, 38.442798987204128 ], [ -78.345382599249263, 38.443415075744838 ], [ -78.345540737790714, 38.443734867411024 ], [ -78.345803288831974, 38.444110228868738 ], [ -78.346443726330961, 38.444587392409687 ], [ -78.347040525288378, 38.445088324700578 ], [ -78.348118294036681, 38.445512430949918 ], [ -78.349126734660103, 38.445803383032796 ], [ -78.349632377367641, 38.445892509074326 ], [ -78.350248706533364, 38.445874865324356 ], [ -78.351286997156762, 38.445917205949286 ], [ -78.351918150280767, 38.446061285115718 ], [ -78.352240229446977, 38.446538525739982 ], [ -78.352456969029959, 38.447009775739275 ], [ -78.352507209654846, 38.447364178863722 ], [ -78.352424865904993, 38.447893544487897 ], [ -78.352469648196575, 38.448396745528783 ], [ -78.352664944029641, 38.44886861011139 ], [ -78.353013951320747, 38.449196435110878 ], [ -78.353913269027714, 38.449549026776992 ], [ -78.35487879298455, 38.449854669484807 ], [ -78.355617272150027, 38.449973128859654 ], [ -78.356590674231882, 38.45006232260954 ], [ -78.357075616939426, 38.450152013234401 ], [ -78.357367622147308, 38.450292277817482 ], [ -78.35748578881379, 38.450532119483796 ], [ -78.357832383604944, 38.450923061149865 ], [ -78.358559745062166, 38.451357122607476 ], [ -78.359445684644129, 38.451867704898405 ], [ -78.360161591934684, 38.452243530939484 ], [ -78.360355490892687, 38.452764967397002 ], [ -78.36047527630916, 38.452950710105029 ], [ -78.361038141933307, 38.453245341354545 ], [ -78.361573669015797, 38.453675886145561 ], [ -78.361587482557468, 38.453896199686881 ], [ -78.361697730473963, 38.454365985102811 ], [ -78.361571742974149, 38.454910123643629 ], [ -78.361102369016521, 38.455549706976001 ], [ -78.360739885683756, 38.456478997599561 ], [ -78.360324703392735, 38.456801719474072 ], [ -78.359925051310029, 38.457281645514968 ], [ -78.359646645060479, 38.457924749680615 ], [ -78.359473447144069, 38.458605369471229 ], [ -78.360317206517777, 38.45875681009602 ], [ -78.360958403391749, 38.459206841345292 ], [ -78.361104065891539, 38.460157572593857 ], [ -78.361032735683295, 38.460961390300952 ], [ -78.3610384919333, 38.461393639258574 ], [ -78.361333007557846, 38.462033798632604 ], [ -78.361655166932337, 38.462529027798496 ], [ -78.361904051306965, 38.463269593422353 ], [ -78.36195123464023, 38.463718667379965 ], [ -78.361951884640234, 38.464268175712448 ], [ -78.362143261723247, 38.4646725673785 ], [ -78.362946259638647, 38.465239555919311 ], [ -78.363392422137963, 38.465821301751703 ], [ -78.363633040887578, 38.466206258001137 ], [ -78.363747159637398, 38.466581339250524 ], [ -78.363733674220782, 38.466942071541666 ], [ -78.363570863804341, 38.467329617374389 ], [ -78.363324340888084, 38.467688040290511 ], [ -78.363293946096462, 38.467954668415075 ], [ -78.363256011721546, 38.468987246538461 ], [ -78.363245832554867, 38.469838851745465 ], [ -78.363481089846175, 38.470381615286328 ], [ -78.36381712942898, 38.471070121535263 ], [ -78.364091361720227, 38.471503657992912 ], [ -78.364362215886445, 38.471833694450709 ], [ -78.364714967969235, 38.472161372575215 ], [ -78.364896449218975, 38.472683157991071 ], [ -78.365163477343572, 38.473688944447815 ], [ -78.36533017734331, 38.474166110072076 ], [ -78.365681503384451, 38.475732511111346 ], [ -78.36586913567578, 38.476024396527521 ], [ -78.366247585675239, 38.47623421736057 ], [ -78.366329944008442, 38.476254466318835 ], [ -78.36657562004973, 38.476314865277118 ], [ -78.367117847132192, 38.476357817360338 ], [ -78.367696691922959, 38.476341155902048 ], [ -78.36884691275452, 38.476366597568699 ], [ -78.369683355461518, 38.476513672568444 ], [ -78.370332897127184, 38.476634595484938 ], [ -78.37090291900131, 38.476870413192898 ], [ -78.371160602334271, 38.47699361319269 ], [ -78.371443484625502, 38.477165634025766 ], [ -78.37172642212505, 38.477319632983892 ], [ -78.372074330457849, 38.477584369441786 ], [ -78.372283656499178, 38.477749498608205 ], [ -78.372607393998692, 38.478114023607645 ], [ -78.37300202524807, 38.478643162148501 ], [ -78.373411992955766, 38.479113300689448 ], [ -78.373633083580387, 38.479323129855743 ], [ -78.374293538787697, 38.479673436105202 ], [ -78.374582928370614, 38.479827243396642 ], [ -78.374731838787056, 38.479737365271774 ], [ -78.375009422119945, 38.479864487146585 ], [ -78.375864038785267, 38.480123599646163 ], [ -78.376148114826492, 38.480128915271166 ], [ -78.376568064825847, 38.480305974645887 ], [ -78.377015509616854, 38.480707454853587 ], [ -78.377665789824164, 38.481391351727552 ], [ -78.378830712738988, 38.482591886100693 ], [ -78.379688125237692, 38.483449957974358 ], [ -78.380263027320098, 38.48424411943148 ], [ -78.38069553148614, 38.485060410055212 ], [ -78.381138105443767, 38.485601646512691 ], [ -78.381795025234396, 38.486123172553562 ], [ -78.38228056585865, 38.486437946511387 ], [ -78.382806128357856, 38.486643461094388 ], [ -78.38340467106525, 38.486797314219132 ], [ -78.383897308564485, 38.486949722552254 ], [ -78.385307473145645, 38.487260257968444 ], [ -78.386190128352609, 38.487419387134878 ], [ -78.386580853351973, 38.487426092343185 ], [ -78.386937931476439, 38.487379720468255 ], [ -78.387375867934111, 38.48705624546875 ], [ -78.387659086683641, 38.487088582968681 ], [ -78.388155762724523, 38.487128249635305 ], [ -78.38857860334889, 38.487224105885161 ], [ -78.389210809597898, 38.487431004843188 ], [ -78.390190985638071, 38.487844021509204 ], [ -78.390746936678852, 38.488192755883688 ], [ -78.391449866886092, 38.488406600674978 ], [ -78.391895507510412, 38.488862123590934 ], [ -78.392486900217818, 38.489236846507026 ], [ -78.393011093967004, 38.489469378798333 ], [ -78.393501112716251, 38.489675873589704 ], [ -78.393919075215592, 38.489911481922661 ], [ -78.394769117922635, 38.490503901713396 ], [ -78.395456825213216, 38.491132556920775 ], [ -78.396005329379022, 38.491706693378205 ], [ -78.39641013979508, 38.492298511085608 ], [ -78.397001747085824, 38.492646177751737 ], [ -78.397488323126709, 38.492965363167912 ], [ -78.397693720001428, 38.493166591292606 ], [ -78.397699425209737, 38.494004219416297 ], [ -78.397559378334961, 38.494922652748187 ], [ -78.397537341876671, 38.495535870455569 ], [ -78.397709070001383, 38.495706548580358 ], [ -78.398189577292271, 38.496197068371259 ], [ -78.398675254374893, 38.496511768370738 ], [ -78.399343556457154, 38.496722066287077 ], [ -78.399661873123364, 38.496753354828684 ], [ -78.400177280414198, 38.49724285066128 ], [ -78.400873507496442, 38.497650515244004 ], [ -78.401608680411982, 38.497975965243484 ], [ -78.402436147077367, 38.498199633993124 ], [ -78.403038649159782, 38.498240662118064 ], [ -78.404103009574783, 38.498295273576332 ], [ -78.405273976239641, 38.498346771492891 ], [ -78.406552850195965, 38.498377097534501 ], [ -78.407824712694037, 38.498596792325827 ], [ -78.409408698108223, 38.499023580866833 ], [ -78.410388477273386, 38.499467963157826 ], [ -78.411098309563954, 38.499794093365665 ], [ -78.412976029352706, 38.500784296489144 ], [ -78.414656559558409, 38.501500960029659 ], [ -78.417216525179413, 38.502507203778123 ], [ -78.418507244969078, 38.502699201694497 ], [ -78.42045260850773, 38.502723404819449 ], [ -78.421547428297686, 38.50303370273565 ], [ -78.421437113714546, 38.503397263151726 ], [ -78.42146700850617, 38.503540523568176 ], [ -78.421327375173064, 38.503954487109183 ], [ -78.420872083507106, 38.504787562107879 ], [ -78.420661677257442, 38.505307191273744 ], [ -78.420551427257578, 38.505868933981219 ], [ -78.420561271007557, 38.506553280855144 ], [ -78.420887461632049, 38.507426560020463 ], [ -78.421467943922835, 38.508373472518997 ], [ -78.421888316838874, 38.508946718351467 ], [ -78.422174804338397, 38.509231106892685 ], [ -78.422577704337755, 38.509552625642186 ], [ -78.423154566836899, 38.509972648558175 ], [ -78.423528287669626, 38.51015088501623 ], [ -78.42438139600165, 38.51037814439087 ], [ -78.427051538705825, 38.510714320432044 ], [ -78.428312942870548, 38.510911568348376 ], [ -78.428894748077994, 38.51103864543154 ], [ -78.429573804326935, 38.511153860014701 ], [ -78.430051649117843, 38.511234436056213 ], [ -78.43212481057293, 38.511511429805807 ], [ -78.434045337653288, 38.511833404805316 ], [ -78.434573788694138, 38.511885448555233 ], [ -78.435383924109544, 38.51196525272178 ], [ -78.435733080359, 38.512063095429937 ], [ -78.436042640775213, 38.512063008971609 ], [ -78.436482182441182, 38.512117657929878 ], [ -78.438122794938636, 38.512542377720877 ], [ -78.438716749104401, 38.512732104803888 ], [ -78.439482469936536, 38.513101450636668 ], [ -78.439914456394206, 38.513309448553002 ], [ -78.440090520977265, 38.513398857927882 ], [ -78.440271555351956, 38.513551177719307 ], [ -78.440502940768283, 38.513598421469226 ], [ -78.440622723059789, 38.514198451676634 ], [ -78.441209805350525, 38.515897258965651 ], [ -78.441248104308784, 38.516238448548449 ], [ -78.441154806392262, 38.516524953756345 ], [ -78.440953676184279, 38.516571407922925 ], [ -78.440487549101647, 38.516598633964577 ], [ -78.439276565770172, 38.516571195422955 ], [ -78.43909017097883, 38.516671264172771 ], [ -78.438804655354261, 38.517229165213564 ], [ -78.438462649104792, 38.517977900629091 ], [ -78.438100927230323, 38.518335354795227 ], [ -78.437608745981095, 38.51862457562811 ], [ -78.437167909523453, 38.51888976416933 ], [ -78.436856918898968, 38.519236717293779 ], [ -78.436535764732753, 38.51984070270953 ], [ -78.436392850149673, 38.520376389167041 ], [ -78.436217147024934, 38.521570645415181 ], [ -78.43636885744138, 38.521976066247873 ], [ -78.436575335566033, 38.522244752705831 ], [ -78.438044483480439, 38.523435707912313 ], [ -78.442499341806865, 38.527331353739555 ], [ -78.442861600139622, 38.527649492280773 ], [ -78.439560387644747, 38.529877094360643 ], [ -78.43841369493822, 38.530816148525844 ], [ -78.437948657438938, 38.53083432665079 ], [ -78.437689424105997, 38.530643766234448 ], [ -78.437093400148569, 38.529638845402644 ], [ -78.435608172025866, 38.528443850612859 ], [ -78.434502432444276, 38.527296245406319 ], [ -78.432882624113461, 38.526366406866089 ], [ -78.432471673072428, 38.526247849574588 ], [ -78.431939779323272, 38.526249946449582 ], [ -78.431555204323843, 38.526324290199454 ], [ -78.43078274703339, 38.526554146449143 ], [ -78.430140417867676, 38.526879271448593 ], [ -78.429777352243264, 38.527259259989705 ], [ -78.429361617868892, 38.527748893322268 ], [ -78.429192837660821, 38.52828082977976 ], [ -78.42902300745277, 38.528862340195531 ], [ -78.428835130369748, 38.529471406861262 ], [ -78.428578984536784, 38.5296770985276 ], [ -78.427983197037747, 38.530077418318626 ], [ -78.427081562664114, 38.530437152693082 ], [ -78.42574094704122, 38.5307601964426 ], [ -78.425435080374996, 38.530949322483934 ], [ -78.425042392875639, 38.531253594358475 ], [ -78.424415536626611, 38.532064684982231 ], [ -78.423902629335714, 38.532471565189951 ], [ -78.423307406419951, 38.532858333939316 ], [ -78.422848638712367, 38.533137508938921 ], [ -78.422441888712967, 38.533361111021861 ], [ -78.421905389755466, 38.53349391935501 ], [ -78.421067577256792, 38.533712111021316 ], [ -78.420555331424225, 38.53385771622942 ], [ -78.420012603300108, 38.534184379770579 ], [ -78.419717825175553, 38.534517299561742 ], [ -78.419484917884233, 38.534983536019354 ], [ -78.419323651217837, 38.535785487059798 ], [ -78.419097279343191, 38.536994718307938 ], [ -78.4188040710103, 38.537300566224076 ], [ -78.418192771011263, 38.537912984973161 ], [ -78.417859333511785, 38.538391165180769 ], [ -78.417464221012381, 38.538763046430176 ], [ -78.417338241845925, 38.539027970388076 ], [ -78.417127124137892, 38.539822367261877 ], [ -78.416373428305747, 38.540925391218479 ], [ -78.415344618932352, 38.542509382882656 ], [ -78.415233640807514, 38.542818905798867 ], [ -78.415070217891071, 38.543224550589912 ], [ -78.414951126224594, 38.543764024547386 ], [ -78.414689209558333, 38.544568908921178 ], [ -78.414194750184095, 38.546087740168787 ], [ -78.414039748101004, 38.546709336001186 ], [ -78.413544837685151, 38.547530030791563 ], [ -78.413307621018816, 38.547672081833014 ], [ -78.412081761645709, 38.548023152665792 ], [ -78.410040390815595, 38.548659240164795 ], [ -78.409414360608196, 38.548952251622666 ], [ -78.409072824150428, 38.549223452663909 ], [ -78.408680048109375, 38.549514163080119 ], [ -78.40848612310964, 38.549821594329671 ], [ -78.408321899151588, 38.550222750579053 ], [ -78.408039093943671, 38.551167859952557 ], [ -78.407761054360776, 38.551504768285383 ], [ -78.407582244986031, 38.551631592243496 ], [ -78.405986007488536, 38.551642071410186 ], [ -78.405166615823134, 38.551796558909928 ], [ -78.404327380407778, 38.552028190159547 ], [ -78.403566437700647, 38.55238815786737 ], [ -78.401740564786792, 38.55326105682434 ], [ -78.401291551245833, 38.553265110990992 ], [ -78.397863012709479, 38.554337705780995 ], [ -78.395251256463553, 38.555566651612423 ], [ -78.394964257505649, 38.555692093278878 ], [ -78.394599671047843, 38.555662142237281 ], [ -78.393909484590608, 38.555447964112602 ], [ -78.392002695010262, 38.554868209946846 ], [ -78.391211934594821, 38.554683956822146 ], [ -78.390333446054512, 38.554623854738907 ], [ -78.38962397626392, 38.554711988072086 ], [ -78.389187690847962, 38.554819226613574 ], [ -78.38666498876853, 38.556581398485832 ], [ -78.385675825228361, 38.557272162026436 ], [ -78.384219741897311, 38.558926820357215 ], [ -78.383258935648826, 38.55998609014722 ], [ -78.38159632731805, 38.56091701410412 ], [ -78.381033442943931, 38.56133416827015 ], [ -78.380837213777568, 38.56169116826959 ], [ -78.380746487736019, 38.562355908893551 ], [ -78.380868343985867, 38.563352316183682 ], [ -78.380831584610917, 38.564808232848065 ], [ -78.381159117943753, 38.566321178679061 ], [ -78.38127394086024, 38.567056544302886 ], [ -78.38125158565191, 38.567665256801945 ], [ -78.381387107526734, 38.568062209926381 ], [ -78.381742628359518, 38.568344697425914 ], [ -78.382103391900614, 38.568482899509036 ], [ -78.383247433565487, 38.569017322424884 ], [ -78.383875141897875, 38.570021604714952 ], [ -78.384160582522384, 38.57064392763067 ], [ -78.384269589813925, 38.571311894296286 ], [ -78.384196391897376, 38.571944599503638 ], [ -78.384066450230875, 38.572781634919011 ], [ -78.383644262731536, 38.573424443251383 ], [ -78.383004405440886, 38.574334792208276 ], [ -78.382705763774652, 38.575226254706877 ], [ -78.382738602316294, 38.575711756789474 ], [ -78.383115927315714, 38.577209739078796 ], [ -78.383293934607082, 38.578033355744196 ], [ -78.384767709604773, 38.57864379532657 ], [ -78.385387465853853, 38.580819382823222 ], [ -78.385761218978246, 38.582655269278689 ], [ -78.38490875335458, 38.584621259900644 ], [ -78.38464121585497, 38.585804598440461 ], [ -78.38344130023188, 38.588163495311846 ], [ -78.383327220023716, 38.588342459894875 ], [ -78.381019084610614, 38.590075796350504 ], [ -78.379539937737889, 38.590528456766492 ], [ -78.378611334614334, 38.591217419265433 ], [ -78.378275773156531, 38.591465840098351 ], [ -78.374608682537257, 38.594229245302415 ], [ -78.374187624204581, 38.594831451551443 ], [ -78.373631800247097, 38.596167223424402 ], [ -78.37319244295611, 38.596819499465028 ], [ -78.372593699207016, 38.597278189047699 ], [ -78.371867428374799, 38.597691008838694 ], [ -78.371458026292146, 38.597175830714491 ], [ -78.371251399209086, 38.596911538006566 ], [ -78.371162422125906, 38.596715921340206 ], [ -78.370669719001683, 38.596225664049314 ], [ -78.37016502629416, 38.59565917759187 ], [ -78.369888817961225, 38.595306805717371 ], [ -78.369618913794966, 38.594778590093199 ], [ -78.369104763795804, 38.593392608845363 ], [ -78.369020417962588, 38.593088755720828 ], [ -78.368545232546637, 38.592458352596793 ], [ -78.36820857629715, 38.592040156764142 ], [ -78.36774592733957, 38.59163910363975 ], [ -78.367253616923676, 38.591351505723537 ], [ -78.366155311717023, 38.59081110884938 ], [ -78.365545903384657, 38.590504357808186 ], [ -78.36499585026047, 38.590128330725463 ], [ -78.364472129427952, 38.589517323434734 ], [ -78.363773858595721, 38.588816748435818 ], [ -78.36337796797136, 38.588296646353285 ], [ -78.363161679429993, 38.587843440103995 ], [ -78.362660123180774, 38.587038106771899 ], [ -78.361945165890234, 38.586536185939337 ], [ -78.361789957557107, 38.586446061981178 ], [ -78.361305976307904, 38.585640216149045 ], [ -78.360907385683504, 38.584746332817133 ], [ -78.360547627350741, 38.583792775526945 ], [ -78.360387508600979, 38.582878522403348 ], [ -78.360301733601091, 38.582200852612743 ], [ -78.360092306518084, 38.581540249488739 ], [ -78.359940823185013, 38.581049140114544 ], [ -78.359493446102363, 38.580453931782131 ], [ -78.358841395061688, 38.57989162553298 ], [ -78.358046744021294, 38.579482054700293 ], [ -78.35688241798141, 38.579231731784034 ], [ -78.355861435691338, 38.579067366159279 ], [ -78.355140889859115, 38.578912384909529 ], [ -78.354368950276978, 38.578493127618515 ], [ -78.353579337778228, 38.578214000535581 ], [ -78.353005275279088, 38.577919676577721 ], [ -78.35265943465464, 38.577762941161268 ], [ -78.352168124238744, 38.577601367203215 ], [ -78.351885410697491, 38.57742930574517 ], [ -78.351613430489579, 38.577121806787318 ], [ -78.351501960698101, 38.576818717204446 ], [ -78.35146741278146, 38.576580983871452 ], [ -78.351262610698484, 38.576167963038756 ], [ -78.350965448198906, 38.575843170330927 ], [ -78.35077215444926, 38.575650524497917 ], [ -78.350512875282959, 38.575392206789957 ], [ -78.349944605492169, 38.575021130748894 ], [ -78.349345602368089, 38.574686965124386 ], [ -78.348585146119319, 38.574366431791589 ], [ -78.347571049245857, 38.574120717208643 ] ] ] ] } }
]
}
